Latitude;Longitude;Place_name
51.518201;-0.169803;"Royal Exchange, London, England"
51.508834;-0.125093;"Strand, London, England"
51.51239;-0.09579;"Friday-street, London, England"
51.507265;-0.127833;"St. Katherines Lane near Tower-Hill, London, England"
51.51342;-0.0771;"St. Botolphs Aldgate, London, England"
51.50853;-0.12574;"St Giles's, London, England"
51.50853;-0.12574;"St. Martins in the fields, London, England"
51.50853;-0.12574;"White-chappel, London, England"
51.513717;-0.068538;"Goodmans Fields, London, England"
51.50853;-0.12574;"Armitage-stairs, London, England"
51.52332;-0.03888;"St. Dunstan's in the East, London, England"
51.50853;-0.12574;"St. Martins Parish, London, England"
51.5;-0.11667;"the Crown in the Old Palace-Yard Westminster, London, England"
51.50853;-0.12574;"Alhollows Barkin, London, England"
51.671824;-0.032728;"Cornhill, London, England"
51.50853;-0.12574;"Hornzey, London, England"
51.50853;-0.12574;"Little St. Bartholomews, London, England"
51.422978;-0.160094;"Amen Corner, London, England"
51.422978;-0.160094;"Amen Corner, London, England"
51.50853;-0.12574;"St. Magnes parish, London, England"
51.50853;-0.12574;"Fetter-lane, London, England"
51.50853;-0.12574;"Chelsy, London, England"
51.526669;-0.079893;"Shoreditch, London, England"
51.584501;-0.000809;"Woodstreet, London, England"
51.51348;-0.112117;"Fleet street, London, England"
51.50853;-0.12574;"Branford, London, England"
51.517402;-0.046219;"Stepney, London, England"
51.51336;-0.08597;"St. Michaels Cornhill, London, England"
51.497566;-0.183931;"Exchange, London, England"
51.517402;-0.046219;"Stepney, London, England"
51.50853;-0.12574;"St. Leonard Shorditch, London, England"
51.50853;-0.12574;"St. Lawrence Jury, London, England"
51.50853;-0.12574;"St. Dunstans in the West, London, England"
51.50853;-0.12574;"St. Ann Agnes, London, England"
51.50853;-0.12574;"St. Andrews Holbourn, London, England"
51.50853;-0.12574;"St Dunstans in the West, London, England"
51.50853;-0.12574;"New Fish street, London, England"
51.50853;-0.12574;"the Roe-Buck in Fleet-street, London, England"
51.517402;-0.046219;"Stepney, London, England"
51.50853;-0.12574;"Lombard-street, London, England"
51.51718;-0.10695;"St. Andrew Holborn, London, England"
51.51601;-0.08983;"Coleman-street, London, England"
51.50853;-0.12574;"St. Mary Woolnoth, London, England"
51.50853;-0.12574;"St. Giles's in the fields, London, England"
51.50853;-0.12574;"Ax in Alderman-bury, London, England"
51.50853;-0.12574;"White-Chappel, London, England"
51.50853;-0.12574;"St. Mary Wool-church, London, England"
51.50853;-0.12574;"St. Laurence-lane, London, England"
51.50853;-0.12574;"St. Mildred, London, England"
51.50853;-0.12574;"St. Sepulchres, London, England"
51.5;-0.11667;"St. Margarets, Westminster, London, England"
51.50853;-0.12574;"Wilsdon, London, England"
51.51753;-0.12045;"St. Andrews Holborn, London, England"
51.50853;-0.12574;"St. Martins in the Fields, London, England"
51.50853;-0.12574;"St. Martins in the Fields, London, England"
51.50853;-0.12574;"St. Martins in the Fields, London, England"
51.50853;-0.12574;"St. Martins in the Fields, London, England"
51.50853;-0.12574;"St. Martins in the Fields, London, England"
51.50853;-0.12574;"St. Edmunds Lumbard street, London, England"
51.50853;-0.12574;"Lumbard-street, London, England"
51.517402;-0.046219;"Stepney, London, England"
51.50853;-0.12574;"St. Martins in the Fields, London, England"
51.50853;-0.12574;"St. James Midd, London, England"
51.50853;-0.12574;"St. Dunstans in the West, London, England"
51.50853;-0.12574;"Hellingdon, London, England"
51.50853;-0.12574;"Hellingdon, London, England"
51.50853;-0.12574;"St. Dunstans in the West, London, England"
51.50853;-0.12574;"St. Dunstans in the West, London, England"
51.50853;-0.12574;"St. Giles's Cripple-gate, London, England"
51.50853;-0.12574;"St. Sepulchres, London, England"
51.50853;-0.12574;"St Martins in the Fields, London, England"
51.51753;-0.12045;"St. Andrews Holborn, London, England"
51.50853;-0.12574;"St. Giles's Cripple-Gate, London, England"
51.51424;-0.12471;"St. Pauls Covent-Garden, London, England"
51.51424;-0.12471;"St. Pauls Covent-Garden, London, England"
51.50853;-0.12574;"St. Andrews Holbourn, London, England"
51.50853;-0.12574;"St. James's Clarkenwell, London, England"
51.512961;-0.127523;"St. Martins, London, England"
51.50853;-0.12574;"St. Gregories, London, England"
51.50853;-0.12574;"St. Pauls Church-Yard, London, England"
51.50853;-0.12574;"St. Mary Marfellon, London, England"
51.50853;-0.12574;"St. Bennedict, London, England"
51.50853;-0.12574;"St. Buttolph, London, England"
51.50853;-0.12574;"St. Matfellon alias White Chappell, London, England"
51.50853;-0.12574;"St. Matfellon alias White Chappell, London, England"
51.50853;-0.12574;"St. Martins in the Field, London, England"
51.50853;-0.12574;"St. Giles's in the Fields, London, England"
51.50853;-0.12574;"St. Alhallows Lumbard street, London, England"
51.50853;-0.12574;"Safforn-Hill, London, England"
51.50853;-0.12574;"Northern-Falgate, London, England"
51.50853;-0.12574;"St. Andrew's Holbourn, London, England"
51.50853;-0.12574;"Red-Lyon Square, London, England"
51.50853;-0.12574;"St. Anne Agnes, London, England"
51.50853;-0.12574;"St. Martins in the Fields, London, England"
51.50853;-0.12574;"St. Michael-Bashaw, London, England"
51.50853;-0.12574;"St. Andrews Holbourn alias Ward, London, England"
51.50853;-0.12574;"St. Giles's Cripplegate, London, England"
51.50853;-0.12574;"St. Giles Cripplegate, London, England"
51.499834;-0.126706;"St. Margaret Westminster, London, England"
51.5;-0.11667;"Hill Tavern in Westminster, London, England"
51.50853;-0.12574;"St. Pancrass in the County of Middlesex, London, England"
51.507908;-0.136573;"St. James's Westminster, London, England"
51.50853;-0.12574;"St. Martins in the Fields, London, England"
51.483484;-0.348995;"Thistleworth, London, England"
51.50853;-0.12574;"St. Andrews Holbourn, London, England"
51.50853;-0.12574;"St. Edmunds the King, in the Ward of Longhorne, London, England"
51.51342;-0.0771;"St. Botolphs Aldgate, London, England"
51.50853;-0.12574;"Mark-Lane, London, England"
51.53333;0.08333;"St. Alhollows Barking, London, England"
51.483484;-0.348995;"Thistleworth, London, England"
51.50853;-0.12574;"St. Andrews Holbourn, London, England"
51.517402;-0.046219;"Stepney, London, England"
51.50853;-0.12574;"St. Dunstans in the West, London, England"
51.474422;-0.206077;"Fulham, London, England"
51.517402;-0.046219;"Stepney, London, England"
51.587364;-0.120967;"Hornsey, London, England"
51.50853;-0.12574;"St. Matin's in the Fields, London, England"
51.50853;-0.12574;"St. Nicholas Cole-Abby, London, England"
51.51635;-0.08144;"St. Botolph Bishopsgate, London, England"
51.50853;-0.12574;"St. Giles's Church, London, England"
51.473755;-0.160224;"Thames, London, England"
51.50853;-0.12574;"St. Andrew's Holbourn, London, England"
51.50853;-0.12574;"St. Giles's in the Fields, London, England"
51.50853;-0.12574;"St. Clement's Danes, London, England"
51.50853;-0.12574;"St. Andrews Holbourn, London, England"
51.50853;-0.12574;"St. Mary Aldermary, London, England"
51.50853;-0.12574;"St. Clements Danes, London, England"
51.513729;-0.114796;"Clements Inn, London, England"
51.50853;-0.12574;"Eling, London, England"
51.50853;-0.12574;"St. Andrews Holbourn, London, England"
51.50853;-0.12574;"St. Andrews Holbourn, London, England"
51.50853;-0.12574;"St. Andrews Holbourn, London, England"
51.50853;-0.12574;"St. Martins in the Fields, London, England"
51.50853;-0.12574;"St. Clements Danes, London, England"
51.517402;-0.046219;"Stepney, London, England"
51.51342;-0.0771;"St. Buttolphs Aldgate, London, England"
51.483484;-0.348995;"Thistleworth, London, England"
51.5;-0.11667;"St. James's Liberty of Westminster, London, England"
51.517402;-0.046219;"Stepney, London, England"
51.51635;-0.08144;"St. Butolphs Bishopsgate, London, England"
51.620339;-0.065979;"Edmonton, London, England"
51.50853;-0.12574;"West Ham in Essex, London, England"
51.532563;-0.453256;"Hillingdon, London, England"
51.50853;-0.12574;"St. Sepulchres, London, England"
51.50853;-0.12574;"St. Mary Islingtone, London, England"
51.532121;-0.125863;"St. Pancras, London, England"
51.507191;-0.132358;"St. James Westminster, London, England"
51.50853;-0.12574;"Fetter-Lane, London, England"
51.507265;-0.127833;"St. Christophers Parish, near the Exchange, London, England"
51.50853;-0.12574;"St. James Clarkenwel, London, England"
51.50853;-0.12574;"St. Andrews Holburn, London, England"
51.51336;-0.08597;"St. Michaels Cornhill, London, England"
51.50853;-0.12574;"Ratcliff Highway, London, England"
51.50853;-0.12574;"Ratcliff Highway, London, England"
51.50853;-0.12574;"Bishopgate street, London, England"
51.51753;-0.12045;"St. Andrews Holborn, London, England"
51.50853;-0.12574;"Little-All-hallows, London, England"
51.50853;-0.12574;"Stepney Parish, London, England"
51.50853;-0.12574;"without Bishops-gate, London, England"
51.50853;-0.12574;"Knight-Riders-street, London, England"
51.51342;-0.0771;"St. Botolph's Aldgate, London, England"
51.50853;-0.12574;"Honey-lane Market, London, England"
51.50853;-0.12574;"White-chappel, London, England"
51.50853;-0.12574;"White-Chappel Road, London, England"
51.50853;-0.12574;"Ram-Ally, London, England"
51.50853;-0.12574;"Shoe-lane, London, England"
51.624515;0.215002;"Paternoster-row, London, England"
51.50853;-0.12574;"St. Dunstans in the West, London, England"
51.50853;-0.12574;"Star Tavern in White-Fryers, London, England"
51.50853;-0.12574;"St. Martins Ludgate, London, England"
51.50853;-0.12574;"St. Martins Ludgate, London, England"
51.52438;-0.11022;"St. James Clerkenwell, London, England"
51.50853;-0.12574;"St. Buttolph without Algate, London, England"
51.50853;-0.12574;"St. Peters Cornhil, London, England"
51.498995;-0.199123;"Kensington, London, England"
51.498995;-0.199123;"Kensington, London, England"
51.507908;-0.136573;"St. James's Westminster, London, England"
51.50853;-0.12574;"St. Sepulchres, London, England"
51.54863;-0.48048;"Ditton near Uxbridge, London, England"
51.50853;-0.12574;"St. Giles's in the Fields, London, England"
51.517678;-0.118939;"High Holborn, London, England"
51.516817;-0.126344;"the Crown, London, England"
51.50853;-0.12574;"South-Mims, London, England"
51.50853;-0.12574;"Whitechappel, London, England"
51.509403;-0.052039;"St. Pauls Shadwell, London, England"
51.50853;-0.12574;"Whitechappel, London, England"
51.50853;-0.12574;"Lamb's-Chappel in the Ward of Cripplegate, London, England"
51.476547;-0.175451;"St. Mary, London, England"
51.50853;-0.12574;"St. Giles's in the County of Middlesex, London, England"
51.50853;-0.12574;"Hillenden, London, England"
51.50853;-0.12574;"St. Giles's in the Fields, London, England"
51.50853;-0.12574;"St. Giles's in the Fields, London, England"
51.5;-0.11667;"St. Anns Westminster, London, England"
51.54324;-0.049362;"Hackney, London, England"
51.50853;-0.12574;"Hackney-Church, London, England"
51.507908;-0.136573;"St. James's Westminster, London, England"
51.50853;-0.12574;"St Dunstan's in the West, London, England"
51.452447;-0.007027;"St. Swithin's, London, England"
51.51336;-0.08597;"St. Michael's Cornhill, London, England"
51.51336;-0.08597;"St. Michael's Cornhill, London, England"
51.50853;-0.12574;"St. Martin's in the Fields, London, England"
51.50853;-0.12574;"St. Martin's in the Fields, London, England"
51.50853;-0.12574;"St. Giles's in the Fields, London, England"
51.50853;-0.12574;"St. Giles's in the Fields, London, England"
51.50853;-0.12574;"St. Dunstan's in the West, London, England"
51.50853;-0.12574;"White-Fryers, London, England"
51.50853;-0.12574;"St. Giles's Cripplegate, London, England"
51.50853;-0.12574;"St. Dunstan's in the West, London, England"
51.50853;-0.12574;"St. Andrews Holbourn, London, England"
51.50853;-0.12574;"St. Andrews Holbourn, London, England"
51.50853;-0.12574;"St. Martins in the Fields, London, England"
51.517402;-0.046219;"Stepney, London, England"
51.517402;-0.046219;"Stepney, London, England"
51.50853;-0.12574;"St. Clements Deans, London, England"
51.5;-0.11667;"St. Margarets Westminster, London, England"
51.507191;-0.132358;"St. James Westminster, London, England"
51.51753;-0.12045;"St. Andrews Holborn, London, England"
51.5;-0.11667;"St. Margets Westminster, London, England"
51.51753;-0.12045;"St. Andrews Holborn, London, England"
51.5;-0.11667;"St. Margaret's Westminster, London, England"
51.456709;-0.322412;"St. Margaret's, London, England"
51.5138;-0.10576;"St. Brides, London, England"
51.52541;-0.16806;"St. Mary le Bone, London, England"
51.518863;-0.218106;"St. Helens, London, England"
51.50853;-0.12574;"St. Dunstan's in the West, London, England"
51.51342;-0.0771;"St. Buttolph's Aldgate, London, England"
51.51382;-0.06583;"St. Mary Whitechapel, London, England"
51.507908;-0.136573;"St. James's Westminster, London, England"
51.507908;-0.136573;"St. James's Westminster, London, England"
51.651712;-0.083214;"Enfield, London, England"
51.651712;-0.083214;"Enfield, London, England"
51.651712;-0.083214;"Enfield, London, England"
51.651712;-0.083214;"Enfield, London, England"
51.50506;-0.05682;"St. John Wapping, London, England"
51.508824;-0.126659;"St. Martin in the Fields, London, England"
51.50853;-0.12574;"St. Giles's in the Fields, London, England"
51.50853;-0.12574;"St. Bennets Paules wharf, London, England"
51.50853;-0.12574;"St. Sepulchres, London, England"
51.50853;-0.12574;"St. Sepulchres, London, England"
51.50853;-0.12574;"Hanwel, London, England"
51.52438;-0.11022;"St. James's Clerkenwell, London, England"
51.506245;-0.105154;"Christ Church, London, England"
51.5;-0.11667;"St. Margaret's Westminster, London, England"
51.5;-0.11667;"St. Margaret's Westminster, London, England"
51.50853;-0.12574;"St. Andrew's Holbourn, London, England"
51.50853;-0.12574;"St. Andrew's Holbourn, London, England"
51.50853;-0.12574;"Sun-Tavern in Holbourn, London, England"
51.50853;-0.12574;"Sun-Tavern in Holbourn, London, England"
51.5138;-0.10576;"St. Brides, London, England"
51.5138;-0.10576;"St. Brides, London, England"
51.51397;-0.10236;"Ludgate-Hill, London, England"
51.51397;-0.10236;"Ludgate-Hill, London, England"
51.50853;-0.12574;"St. Martin's Ludgate, London, England"
51.50853;-0.12574;"St. James's Westminister, London, England"
51.50853;-0.12574;"St. James's Westminister, London, England"
51.50853;-0.12574;"St. Andrews Holbourn, London, England"
51.50853;-0.12574;"St. Andrews Holbourn, London, England"
51.515306;-0.128446;"St. Giles in the Fields, London, England"
51.515306;-0.128446;"St. Giles in the Fields, London, England"
51.51883;-0.09973;"St. Bartholomew the Great, London, England"
51.54324;-0.049362;"Hackney, London, England"
51.54324;-0.049362;"Hackney, London, England"
51.507191;-0.132358;"St. James Westminster, London, England"
51.507191;-0.132358;"St. James Westminster, London, England"
51.50853;-0.12574;"St. Andrews Holbourn, London, England"
51.50853;-0.12574;"St. Andrews Holbourn, London, England"
51.50853;-0.12574;"St. Martins in the Fields, London, England"
51.50853;-0.12574;"St. Martins in the Fields, London, England"
51.517402;-0.046219;"Stepney, London, England"
51.517402;-0.046219;"Stepney, London, England"
51.50853;-0.12574;"St. Andrew Holbourn, London, England"
51.50853;-0.12574;"St. Andrew Holbourn, London, England"
51.54324;-0.049362;"Hackney, London, England"
51.50853;-0.12574;"St. Andrews Holbourn, London, England"
51.517402;-0.046219;"Stepney, London, England"
51.50853;-0.12574;"St. Giles's Cripplegate, London, England"
51.648793;-0.172865;"Barnet, London, England"
51.507191;-0.132358;"St. James Westminster, London, England"
51.51336;-0.08597;"St. Michaels Cornhill, London, England"
51.51336;-0.08597;"St. Michaels Cornhill, London, England"
51.50853;-0.12574;"St. Michaels Queenhithe, London, England"
51.50853;-0.12574;"St. Michaels Queenhithe, London, England"
51.50853;-0.12574;"St. Mary Lothbury, London, England"
51.50853;-0.12574;"St. Mary Lothbury, London, England"
51.50853;-0.12574;"Alhallows in the Wall, London, England"
51.50853;-0.12574;"Alhallows in the Wall, London, England"
51.50853;-0.12574;"St. Buttolphs Bishops-gate, London, England"
51.50853;-0.12574;"St. Buttolphs Bishops-gate, London, England"
51.50853;-0.12574;"St. Andrews Holbourn, London, England"
51.50853;-0.12574;"St. Andrews Holbourn, London, England"
51.50853;-0.12574;"St. Martins in the Fields, London, England"
51.50853;-0.12574;"St. Buttolphs Bishops-gate, London, England"
51.50853;-0.12574;"St. Buttolphs Bishops-gate, London, England"
51.50853;-0.12574;"4 swans in Bishops-gate-street, London, England"
51.50853;-0.12574;"4 swans in Bishops-gate-street, London, England"
51.5;-0.11667;"St. Anns Westminster, London, England"
51.5;-0.11667;"St. Anns Westminster, London, England"
51.50853;-0.12574;"St. Andrew Holbourn, London, England"
51.50853;-0.12574;"St. Andrew Holbourn, London, England"
51.50853;-0.12574;"St. Sepulchres, London, England"
51.50853;-0.12574;"St. Sepulchres, London, England"
51.50853;-0.12574;"St. Mary Whitechappel, London, England"
51.50853;-0.12574;"St. Mary Whitechappel, London, England"
51.52438;-0.11022;"St. James Clerkenwell, London, England"
51.52438;-0.11022;"St. James Clerkenwell, London, England"
51.507908;-0.136573;"St. James's Westminster, London, England"
51.515306;-0.128446;"St. Giles in the Fields, London, England"
51.515306;-0.128446;"St. Giles in the Fields, London, England"
51.516837;-0.041658;"St. Dunstan's Stepney, London, England"
51.516837;-0.041658;"St. Dunstan's Stepney, London, England"
51.5;-0.11667;"St. Margaret's Westminster, London, England"
51.5;-0.11667;"St. Margaret's Westminster, London, England"
51.50853;-0.12574;"St. Sepulchres, London, England"
51.50853;-0.12574;"St. Sepulchres, London, England"
51.51601;-0.08983;"St. Stephen Coleman Street, London, England"
51.51601;-0.08983;"St. Stephen Coleman Street, London, England"
51.51342;-0.0771;"St. Buttolphs Aldgate, London, England"
51.51342;-0.0771;"St. Buttolphs Aldgate, London, England"
51.50853;-0.12574;"St. Giles's in the Fields, London, England"
51.51342;-0.0771;"St. Buttolph Aldgate, London, England"
51.51342;-0.0771;"St. Buttolph Aldgate, London, England"
51.50853;-0.12574;"St. Katherines-Lane, London, England"
51.50853;-0.12574;"St. Katherines-Lane, London, England"
51.50853;-0.12574;"St. Giles's in the Fields, London, England"
51.50853;-0.12574;"St. Giles's in the Fields, London, England"
51.51342;-0.0771;"St. Buttolphs Aldgate, London, England"
51.51342;-0.0771;"St. Buttolphs Aldgate, London, England"
51.50853;-0.12574;"St. Martins in the Fields, London, England"
51.50853;-0.12574;"St. Martins in the Fields, London, England"
51.5;-0.11667;"St. Anns Westminster, London, England"
51.50853;-0.12574;"St. Martins in the Fields, London, England"
51.50853;-0.12574;"St. Martins in the Fields, London, England"
51.517402;-0.046219;"Stepney, London, England"
51.517402;-0.046219;"Stepney, London, England"
51.50853;-0.12574;"St. Sepulchres, London, England"
51.50853;-0.12574;"St. Sepulchres, London, England"
51.51424;-0.12471;"St. Pauls Covent Garden, London, England"
51.513109;-0.113857;"St. Clement-Danes, London, England"
51.513109;-0.113857;"St. Clement-Danes, London, England"
51.50853;-0.12574;"Marybone, London, England"
51.50853;-0.12574;"Marybone, London, England"
51.50853;-0.12574;"St. Andrews Holbourn, London, England"
51.50853;-0.12574;"St. Giles's Cripplegate, London, England"
51.50853;-0.12574;"between Hounslow and London, London, England"
51.50307;-0.133185;"St. James's Park, London, England"
51.50853;-0.12574;"St. Giles's Cripplegate, London, England"
51.517402;-0.046219;"Stepney, London, England"
51.51336;-0.08597;"St. Michaels Cornhill, London, England"
51.50853;-0.12574;"St. Mary White-Chappel, London, England"
51.474422;-0.206077;"Fulham, London, England"
51.474422;-0.206077;"Fulham, London, England"
51.50853;-0.12574;"St. Sepulchres, London, England"
51.50853;-0.12574;"St. Sepulchres, London, England"
51.516837;-0.041658;"St. Dunstans Stepney, London, England"
51.516837;-0.041658;"St. Dunstans Stepney, London, England"
51.51342;-0.0771;"St. Buttolphs Aldgate, London, England"
51.50853;-0.12574;"St. Sepulchres, London, England"
51.50853;-0.12574;"St. Sepulchres, London, England"
51.51342;-0.0771;"St. Buttolphs Aldgate, London, England"
51.51167;-0.07881;"St. Gabriel's Fenchurch-street, London, England"
51.515306;-0.128446;"St. Giles in the Fields, London, England"
51.515306;-0.128446;"St. Giles in the Fields, London, England"
51.50853;-0.12574;"St. Paul's Church-Yard, London, England"
51.50853;-0.12574;"St. Paul's Church-Yard, London, England"
51.50853;-0.12574;"St. Mildred Poultry, London, England"
51.515306;-0.128446;"St. Giles in the Fields, London, England"
51.506245;-0.105154;"Christ-Church, London, England"
51.52332;-0.03888;"St. Dunstan's in the East, London, England"
51.5138;-0.10576;"St. Brides, London, England"
51.50853;-0.12574;"St. Clements Danes, London, England"
51.50853;-0.12574;"St. Andrews Holburn, London, England"
51.507265;-0.127833;"Hand-Alley near Grays-in-Lane, London, England"
51.50853;-0.12574;"St.Martins in the Fields, London, England"
51.50853;-0.12574;"St. Martins in the Fields, London, England"
51.53622;-0.10304;"St. Mary Islington, London, England"
51.5175;-0.04292;"St. Dunstan at Stepney, London, England"
51.5175;-0.04292;"St. Dunstan at Stepney, London, England"
51.5175;-0.04292;"St. Dunstan at Stepney, London, England"
51.526858;-0.077162;"St.Leonard Shoreditch, London, England"
51.50853;-0.12574;"St. Andrews Holbourn, London, England"
51.515306;-0.128446;"St. Giles in the Fields, London, England"
51.515306;-0.128446;"St. Giles in the Fields, London, England"
51.50853;-0.12574;"St. Martins in the Fields, London, England"
51.50853;-0.12574;"St. Martins in the Fields, London, England"
51.50853;-0.12574;"St. Andrews Holbourn, London, England"
51.50853;-0.12574;"St. Sepulchres, London, England"
51.50853;-0.12574;"St. Giles's Cripplegate, London, England"
51.50853;-0.12574;"St. Sepulchres, London, England"
51.50853;-0.12574;"St. Sepulchres, London, England"
51.50853;-0.12574;"Holbourn-Bridge, London, England"
51.50853;-0.12574;"Holbourn-Bridge, London, England"
51.50853;-0.12574;"St. Andrews Holbourn, London, England"
51.50853;-0.12574;"St. Andrews Holbourn, London, England"
51.50853;-0.12574;"St. Thomas Apostles, London, England"
51.50853;-0.12574;"St. Mildreds Poultry, London, England"
51.50853;-0.12574;"Stocks-Market, London, England"
51.50853;-0.12574;"St. Magnes the Martyr, London, England"
51.51625;-0.09299;"St. Mary Aldermanbury, London, England"
51.51342;-0.0771;"St. Buttolph Aldgate, London, England"
51.51342;-0.09487;"Allhallows Bread-street, London, England"
51.483581;-0.492747;"Stanwell, London, England"
51.507265;-0.127833;"near Stains, London, England"
51.50853;-0.12574;"St. Andrews Holbourn, London, England"
51.50853;-0.12574;"little Ormond-yard, London, England"
51.513109;-0.113857;"St. Clement Danes, London, England"
51.50853;-0.12574;"St. Giles Cripplegate, London, England"
51.50853;-0.12574;"St. James's Clarkenwel, London, England"
51.50853;-0.12574;"St. Giles Cripplegate, London, England"
51.50853;-0.12574;"St. Giles Cripplegate, London, England"
51.454188;-0.333922;"All Hallows, London, England"
51.454188;-0.333922;"All Hallows, London, England"
51.50853;-0.12574;"St Giles Cripplegate, London, England"
51.50853;-0.12574;"St Giles Cripplegate, London, England"
51.50853;-0.12574;"St. James Clarkenwel, London, England"
51.50853;-0.12574;"St. Mary White Chappel, London, England"
51.50853;-0.12574;"St. Mary White Chappel, London, England"
51.50853;-0.12574;"St. Giles Cripplegate, London, England"
51.50853;-0.12574;"St. Andrews Holbourn, London, England"
51.50853;-0.12574;"St. Mary White-Chappel, London, England"
51.50853;-0.12574;"St. Mildred Poultry, London, England"
51.50853;-0.12574;"St. Mildred Poultry, London, England"
51.50853;-0.12574;"Stocks Market, London, England"
51.50853;-0.12574;"Stocks Market, London, England"
51.50506;-0.05682;"St. John at Wapping, London, England"
51.50506;-0.05682;"St. John at Wapping, London, England"
51.50968;-0.08262;"St. Dunstan in the East, London, England"
51.50968;-0.08262;"St. Dunstan in the East, London, England"
51.50853;-0.12574;"St. Giles Cripplegate, London, England"
51.50853;-0.12574;"St. Giles Cripplegate, London, England"
51.50853;-0.12574;"St. Dionis Backchurch, London, England"
51.50853;-0.12574;"St. Dionis Backchurch, London, England"
51.50853;-0.12574;"St. Giles's Cripplegate, London, England"
51.50853;-0.12574;"St. Giles's Cripplegate, London, England"
51.5175;-0.04292;"St. Dunstan at Stepney, London, England"
51.50853;-0.12574;"St. Michael's Queenhith, London, England"
51.50853;-0.12574;"St. Michael's Queenhith, London, England"
51.50853;-0.12574;"Queenhith, London, England"
51.50853;-0.12574;"Queenhith, London, England"
51.50853;-0.12574;"St. Martins in the Fields, London, England"
51.50853;-0.12574;"St. Martins in the Fields, London, England"
51.50853;-0.12574;"St. Giles Cripplegate, London, England"
51.50853;-0.12574;"St. Giles Cripplegate, London, England"
51.50853;-0.12574;"Golden Lane, London, England"
51.50853;-0.12574;"Golden Lane, London, England"
51.5;-0.11667;"St. Margarets Westminster, London, England"
51.5;-0.11667;"St. Margarets Westminster, London, England"
51.507191;-0.132358;"St. Jame's Westminster, London, England"
51.507191;-0.132358;"St. Jame's Westminster, London, England"
51.515306;-0.128446;"St. Giles in the Fields, London, England"
51.515306;-0.128446;"St. Giles in the Fields, London, England"
51.512655;-0.305195;"Ealing, London, England"
51.512655;-0.305195;"Ealing, London, England"
51.5;-0.11667;"St. Margarets Westminster, London, England"
51.5;-0.11667;"St. Margarets Westminster, London, England"
51.508824;-0.126659;"St. Martin in the Fields, London, England"
51.508824;-0.126659;"St. Martin in the Fields, London, England"
51.515306;-0.128446;"St. Giles in the Fields, London, England"
51.515306;-0.128446;"St. Giles in the Fields, London, England"
51.51883;-0.09973;"St. Bartholomew the Great, London, England"
51.515306;-0.128446;"St. Giles in the Fields, London, England"
51.50853;-0.12574;"St. Mary Magdalen in Old-Fish-Street, London, England"
51.50853;-0.12574;"St. Martins in the Fields, London, England"
51.50853;-0.12574;"St. Martins in the Fields, London, England"
51.509403;-0.052039;"St. Paul's Shadwell, London, England"
51.509403;-0.052039;"St. Paul's Shadwell, London, England"
51.5;-0.11667;"St. Anns Westminster, London, England"
51.5;-0.11667;"St. Anns Westminster, London, England"
51.444223;-0.410659;"Feltham, London, England"
51.444223;-0.410659;"Feltham, London, England"
51.50853;-0.12574;"St. Clements Danes, London, England"
51.50853;-0.12574;"St. Clements Danes, London, England"
51.515306;-0.128446;"St. Giles in the Fields, London, England"
51.515306;-0.128446;"St. Giles in the Fields, London, England"
51.515306;-0.128446;"St. Giles in the Fields, London, England"
51.515306;-0.128446;"St. Giles in the Fields, London, England"
51.517402;-0.046219;"Stepney, London, England"
51.517402;-0.046219;"Stepney, London, England"
51.52438;-0.11022;"St. James Clerkenwell, London, England"
51.52438;-0.11022;"St. James Clerkenwell, London, England"
51.50853;-0.12574;"Hungerford Market, London, England"
51.50853;-0.12574;"Hungerford Market, London, England"
51.54909;-0.053236;"St. John at Hackney, London, England"
51.54909;-0.053236;"St. John at Hackney, London, England"
51.50853;-0.12574;"St. Martins in the Fields, London, England"
51.50853;-0.12574;"St. Margaret Pattons, London, England"
51.50853;-0.12574;"St. Gregory by St. Paul, London, England"
51.50853;-0.12574;"St. Pauls Church Yard, London, England"
51.50853;-0.12574;"St. Andrew in Holbourn, London, England"
51.51382;-0.06583;"St. Martin's Whitechapel, London, England"
51.51382;-0.06583;"St. Martin's Whitechapel, London, England"
51.50853;-0.12574;"St. James in Westminister, London, England"
51.507191;-0.132358;"Pall Mall, London, England"
51.51422;-0.11017;"St. Dunstan in the West, London, England"
51.51342;-0.0771;"St. Botolph without Aldgate, London, England"
51.50853;-0.12574;"St. Sepulchres, London, England"
51.50853;-0.12574;"St. Andrew in Holbourn, London, England"
51.50853;-0.12574;"St. Clements Danes, London, England"
51.50853;-0.12574;"St. Laurence Jewry, London, England"
51.50853;-0.12574;"Blossoms Inn, London, England"
51.50853;-0.12574;"St. Andrew in Holbourn, London, England"
51.50853;-0.12574;"St. Andrew in Holbourn, London, England"
51.5;-0.11667;"St. Ann in Westminster, London, England"
51.5;-0.11667;"St. Ann in Westminster, London, England"
51.50853;-0.12574;"St. Antholin, London, England"
51.508824;-0.126659;"St. Martin in the Fields, London, England"
51.508824;-0.126659;"St. Martin in the Fields, London, England"
51.50853;-0.12574;"St. Andrew in Holbourn, London, England"
51.50853;-0.12574;"St. Andrew in Holbourn, London, England"
51.5102;-0.08462;"St. George in Botolph Lane, London, England"
51.5102;-0.08462;"St. George Botolph Lane, London, England"
51.51336;-0.08597;"St.Michael in Cornhill, London, England"
51.518201;-0.169803;"Royal-Exchange, London, England"
51.50853;-0.12574;"St. Botolph at Billinsgate, London, England"
51.50853;-0.12574;"St. Botolph at Billinsgate, London, England"
51.51874;-0.094;"St. Giles without Cripplegate, London, England"
51.50853;-0.12574;"St. Sepulchres, London, England"
51.51342;-0.0771;"St. Botolph without Aldgate, London, England"
51.50506;-0.05682;"St. John at Wapping, London, England"
51.50853;-0.12574;"St. Sepulchres, London, England"
51.50853;-0.12574;"St. Sepulchres, London, England"
51.50853;-0.12574;"Peters Lane in Cow Cross, London, England"
51.50853;-0.12574;"Peters Lane in Cow Cross, London, England"
51.597696;-0.067289;"Tottenham, London, England"
51.597696;-0.067289;"Tottenham, London, England"
51.5;-0.11667;"St. James at Westminster, London, England"
51.5;-0.11667;"St. James at Westminster, London, England"
51.51422;-0.11017;"St. Dunstan in the West, London, England"
51.50853;-0.12574;"Edminton, London, England"
51.50853;-0.12574;"Edminton, London, England"
51.50968;-0.08262;"St. Dunstan in the East, London, England"
51.507191;-0.132358;"St. James in Westminster, London, England"
51.507191;-0.132358;"St. James in Westminster, London, England"
51.508733;-0.072803;"Smithfield, London, England"
51.50853;-0.12574;"St. Andrew in Holbourn, London, England"
51.51336;-0.08597;"St. Michael in Cornhill, London, England"
51.51676;-0.08164;"St. Botolph without Bishopsgate, London, England"
51.515306;-0.128446;"St. Giles in the Fields, London, England"
51.515306;-0.128446;"St. Giles in the Fields, London, England"
51.508824;-0.126659;"St. Martin in the Fields, London, England"
51.508824;-0.126659;"St. Martin in the Fields, London, England"
51.5175;-0.04292;"St. Dunstan at Stepney, London, England"
51.5175;-0.04292;"St. Dunstan at Stepney, London, England"
51.51874;-0.094;"St. Giles without Cripplegate, London, England"
51.51874;-0.094;"St. Giles without Cripplegate, London, England"
51.50853;-0.12574;"St. Mary in the Savoy, London, England"
51.50853;-0.12574;"St. Mary in the Savoy, London, England"
51.51336;-0.08597;"St. Peter in Cornhill, London, England"
51.51422;-0.11017;"St. Dunstan in the West, London, England"
51.51422;-0.11017;"St. Dunstan in the West, London, England"
51.513109;-0.113857;"St. Clement Danes, London, England"
51.513109;-0.113857;"St. Clement Danes, London, England"
51.5;-0.11667;"St. Anns Westminster, London, England"
51.5;-0.11667;"St. Anns Westminster, London, England"
51.50853;-0.12574;"All Hallows Barkin, London, England"
51.50853;-0.12574;"Brewer's Key Gate-way, London, England"
51.517402;-0.046219;"Stepney, London, England"
51.517402;-0.046219;"Stepney, London, England"
51.50853;-0.12574;"St. Stephen Walbrook, London, England"
51.526858;-0.077162;"St. Leonard Shoreditch, London, England"
51.50853;-0.12574;"St. Andrew Holbourn, London, England"
51.513419;-0.120983;"Crown Court, London, England"
51.513419;-0.120983;"Crown Court, London, England"
51.51342;-0.0771;"St. Botolph Aldgate, London, England"
51.523727;-0.105555;"Clerkenwell, London, England"
51.523727;-0.105555;"Clerkenwell, London, England"
51.51342;-0.0771;"St. Botolph without Aldgate, London, England"
51.51342;-0.0771;"St. Botolph without Aldgate, London, England"
51.509889;-0.076717;"Tower-Hill, London, England"
51.509889;-0.076717;"Tower-Hill, London, England"
51.52509;-0.07695;"St. Leonard in Shoreditch, London, England"
51.52509;-0.07695;"St. Leonard in Shoreditch, London, England"
51.54909;-0.053236;"St. John at Hackney, London, England"
51.54909;-0.053236;"St. John at Hackney, London, England"
51.5;-0.11667;"St. Ann in Westminster, London, England"
51.516305;-0.179242;"Paddington, London, England"
51.508824;-0.126659;"St. Martin in the Fields, London, England"
51.50853;-0.12574;"St. Stephen in Coloman-street, London, England"
51.5;-0.11667;"St. Ann in Westminster, London, England"
51.5;-0.11667;"St. Ann in Westminster, London, England"
51.501678;-0.172018;"Prince's Gate, London, England"
51.501678;-0.172018;"Prince's Gate, London, England"
51.50853;-0.12574;"St. Sepulchres, London, England"
51.520501;-0.109557;"Leather-Lane, London, England"
51.50506;-0.05682;"St. John at Wapping, London, England"
51.52609;-0.01665;"St. Mary-le-Bow, London, England"
51.616683;-0.087295;"Cheapside, London, England"
51.50853;-0.12574;"St. Andrews Holbourn, London, England"
51.50853;-0.12574;"St. Andrews Holbourn, London, England"
51.509403;-0.052039;"St. Paul's Shadwell, London, England"
51.509403;-0.052039;"St. Paul's Shadwell, London, England"
51.50853;-0.12574;"Shadwell Dock, London, England"
51.50853;-0.12574;"Shadwell Dock, London, England"
51.5;-0.11667;"St. Margaret's Westminster, London, England"
51.507908;-0.136573;"St. James's Westminster, London, England"
51.50853;-0.12574;"St. Giles's in the Fields, London, England"
51.50853;-0.12574;"St. Martins in the Fields, London, England"
51.50853;-0.12574;"St. Clement's Danes, London, England"
51.431665;-0.958125;"Lamb-Inn near St. Clements Church, London, England"
51.50853;-0.12574;"St. Andrews Holbourn, London, England"
51.526858;-0.077162;"St. Leonard Shoreditch, London, England"
51.515306;-0.128446;"St. Giles in the Fields, London, England"
51.515306;-0.128446;"St. Giles in the Fields, London, England"
51.5138;-0.10576;"St. Brides, London, England"
51.50853;-0.12574;"St. John at Hackeny, London, England"
51.50853;-0.12574;"St. John at Hackeny, London, England"
51.50853;-0.12574;"St. Gregory, London, England"
51.511544;-0.123707;"St. Paul's Church, London, England"
51.51635;-0.08144;"St. Botolphs Bishopsgate, London, England"
51.50853;-0.12574;"St. Anns Aldersgate, London, England"
51.512961;-0.127523;"St. Martins, London, England"
51.50853;-0.12574;"St.Giles Cripplegate, London, England"
51.50853;-0.12574;"St.Giles Cripplegate, London, England"
51.50853;-0.12574;"St. Mildred Poultry, London, England"
51.50853;-0.12574;"St. Mildred Poultry, London, England"
51.506245;-0.105154;"Christ-Church, London, England"
51.506245;-0.105154;"Christ-Church, London, England"
51.50853;-0.12574;"St. Laurence Pountney, London, England"
51.50853;-0.12574;"St. Laurence Pountney, London, England"
51.50853;-0.12574;"Precinct of White-Fryars, in the Ward of Farringdon without, London, England"
51.50853;-0.12574;"Precinct of White-Fryars, in the Ward of Farringdon without, London, England"
51.50853;-0.12574;"Water-lane in White-Fryers, London, England"
51.50853;-0.12574;"Water-lane in White-Fryers, London, England"
51.5;-0.11667;"St. Anns Westminster, London, England"
51.5;-0.11667;"St. Anns Westminster, London, England"
51.5175;-0.04292;"St. Dunstan at Stepney, London, England"
51.5175;-0.04292;"St. Dunstan at Stepney, London, England"
51.51336;-0.08597;"St. Michael's Cornhill, London, England"
51.518201;-0.169803;"Royal Exchange, London, England"
51.507191;-0.132358;"St.Jame's Westminster, London, England"
51.507191;-0.132358;"St.Jame's Westminster, London, England"
51.50853;-0.12574;"St. Mary White Chappel, London, England"
51.50853;-0.12574;"St. Mary White Chappel, London, England"
51.5;-0.11667;"St. Margarets Westminster, London, England"
51.5;-0.11667;"St. Margarets Westminster, London, England"
51.50853;-0.12574;"St. Andrews Holbourn, London, England"
51.50853;-0.12574;"St. Andrews Holbourn, London, England"
51.5;-0.11667;"St. Margarets Westminster, London, England"
51.5;-0.11667;"St. Margarets Westminster, London, England"
51.51342;-0.0771;"St. Botolph without Aldgate, London, England"
51.51342;-0.0771;"St. Botolph without Aldgate, London, England"
51.50853;-0.12574;"St. Martins in the Fields, London, England"
51.50853;-0.12574;"St. Martins in the Fields, London, England"
51.50853;-0.12574;"St. Sepulchres, London, England"
51.50853;-0.12574;"St. Sepulchres, London, England"
51.50853;-0.12574;"St. Clements Danes, London, England"
51.50853;-0.12574;"St. Clements Danes, London, England"
51.51424;-0.12471;"St. Paul's Covent Garden, London, England"
51.51424;-0.12471;"St. Paul's Covent Garden, London, England"
51.507265;-0.127833;"Pitchcot near Ailesbury in Buckinghamshire, London, England"
51.507265;-0.127833;"Pitchcot near Ailesbury in Buckinghamshire, London, England"
51.50853;-0.12574;"Alhallows the Less, London, England"
51.52438;-0.11022;"St. James's Clerkenwell, London, England"
51.52438;-0.11022;"St. James's Clerkenwell, London, England"
51.50853;-0.12574;"St. Giles Cripplegate, London, England"
51.50814;-0.273261;"Acton, London, England"
51.50814;-0.273261;"Acton, London, England"
51.51424;-0.12471;"St. Paul's Covent-Garden, London, England"
51.51424;-0.12471;"St. Paul's Covent-Garden, London, England"
51.617421;-0.309511;"Stanmore, London, England"
51.617421;-0.309511;"Stanmore, London, England"
51.52438;-0.11022;"St. James Clerkenwell, London, England"
51.52438;-0.11022;"St. James Clerkenwell, London, England"
51.50853;-0.12574;"St. Andrews Holbourn, London, England"
51.50853;-0.12574;"St. Andrews Holbourn, London, England"
51.52438;-0.11022;"St. James Clerkenwell, London, England"
51.52438;-0.11022;"St. James Clerkenwell, London, England"
51.50853;-0.12574;"Alhallows the Great, London, England"
51.51342;-0.0771;"St. Botolphs Aldgate, London, England"
51.50853;-0.12574;"Blue Boar Inn, London, England"
51.5138;-0.10576;"St. Brides, London, England"
51.50853;-0.12574;"Long Hill, London, England"
51.50853;-0.12574;"St. Laurence Jewry, London, England"
51.50853;-0.12574;"St. Laurence Jewry, London, England"
51.5138;-0.10576;"St. Brides, London, England"
51.5138;-0.10576;"St. Brides, London, England"
51.50853;-0.12574;"Gullty Hole by Fleet Bridge, London, England"
51.50853;-0.12574;"Gullty Hole by Fleet Bridge, London, England"
51.5138;-0.10576;"St. Brides, London, England"
51.5138;-0.10576;"St. Brides, London, England"
51.506245;-0.105154;"Christ-Church, London, England"
51.51635;-0.08144;"St. Botolph Bishopsgate, London, England"
51.51342;-0.0771;"St. Botolph without Aldgate, London, England"
51.51342;-0.0771;"St. Botolph without Aldgate, London, England"
51.508733;-0.072803;"East-Smithfield, London, England"
51.508733;-0.072803;"East-Smithfield, London, England"
51.50853;-0.12574;"Houndsditch, London, England"
51.50853;-0.12574;"Houndsditch, London, England"
51.468397;-0.269985;"Rosemary-Lane, London, England"
51.468397;-0.269985;"Rosemary-Lane, London, England"
51.51342;-0.0771;"St. Botolph without Aldgate, London, England"
51.51342;-0.0771;"St. Botolph without Aldgate, London, England"
51.50853;-0.12574;"St. Martins in the Fields, London, England"
51.50853;-0.12574;"St. Martins in the Fields, London, England"
51.50853;-0.12574;"St. Martins in the Fields, London, England"
51.50853;-0.12574;"St. Martins in the Fields, London, England"
51.490546;-0.085475;"St. Christophers, London, England"
51.50853;-0.12574;"St. Gils's without Cripplegate, London, England"
51.50853;-0.12574;"St. Gils's without Cripplegate, London, England"
51.507908;-0.136573;"St. James's Westminster, London, England"
51.507908;-0.136573;"St. James's Westminster, London, England"
51.50853;-0.12574;"St. Mary White Chapel, London, England"
51.50853;-0.12574;"St. Mary White Chapel, London, England"
51.50853;-0.12574;"White-Lead-House in White Chapel, London, England"
51.50853;-0.12574;"White-Lead-House in White Chapel, London, England"
51.50853;-0.12574;"St. Martins in the Fields, London, England"
51.50853;-0.12574;"St. Martins in the Fields, London, England"
51.5;-0.11667;"St. Anns Westminster, London, England"
51.5;-0.11667;"St. Anns Westminster, London, England"
51.50853;-0.12574;"All Hallows Barkin, London, England"
51.50853;-0.12574;"St. Andrews Holbourn, London, England"
51.50853;-0.12574;"St. Andrews Holbourn, London, England"
51.50853;-0.12574;"Warwicks Stables, London, England"
51.50853;-0.12574;"Warwicks Stables, London, England"
51.51342;-0.0771;"St. Botolph without Aldgate, London, England"
51.51342;-0.0771;"St. Botolph without Aldgate, London, England"
51.515306;-0.128446;"St. Giles in the Fields, London, England"
51.515306;-0.128446;"St. Giles in the Fields, London, England"
51.50853;-0.12574;"Alhallows the Less, London, England"
51.50853;-0.12574;"Alehouse in Bear Lane, London, England"
51.515306;-0.128446;"St. Giles in the Fields, London, England"
51.515306;-0.128446;"St. Giles in the Fields, London, England"
51.51278;-0.12038;"Royal Oake in Drury Lane, London, England"
51.51278;-0.12038;"Royal Oake in Drury Lane, London, England"
51.50853;-0.12574;"St. Clements Danes, London, England"
51.50853;-0.12574;"St. Clements Danes, London, England"
51.50853;-0.12574;"St. Giles's Cripplegate, London, England"
51.50853;-0.12574;"St. Giles's Cripplegate, London, England"
51.526858;-0.077162;"St. Leonard Shoreditch, London, England"
51.526858;-0.077162;"St. Leonard Shoreditch, London, England"
51.50853;-0.12574;"St. Sepulchres, London, England"
51.5175;-0.04292;"St. Dunstan at Stepney, London, England"
51.51422;-0.11017;"St. Dunstan in the West, London, England"
51.5;-0.11667;"St. Margarets Westminster, London, England"
51.5175;-0.04292;"St. Dunstan, at Stepney, London, England"
51.5175;-0.04292;"St. Dunstan at Stepney, London, England"
51.548236;-0.368758;"Northolt, London, England"
51.54855;-0.36778;"Church of Northolt, London, England"
51.51601;-0.08983;"St. Stephen in Coleman-street, London, England"
51.5;-0.11667;"St. Anns Westminster, London, England"
51.5;-0.11667;"St. Anns Westminster, London, England"
51.50506;-0.05682;"St. John at Wapping, London, England"
51.50506;-0.05682;"St. John at Wapping, London, England"
51.50853;-0.12574;"South Mins, London, England"
51.50853;-0.12574;"South Mins, London, England"
51.508824;-0.126659;"St. Martin in the Fields, London, England"
51.508824;-0.126659;"St. Martin in the Fields, London, England"
51.515306;-0.128446;"St. Giles in the Fields, London, England"
51.513757;-0.127003;"7 Dials, London, England"
51.456746;-0.08989;"St. Faiths, London, England"
51.511544;-0.123707;"St. Paul's Church, London, England"
51.50853;-0.12574;"St. Giles's Cripplegate, London, England"
51.51342;-0.0771;"St.Botolph Aldgate, London, England"
51.51378;-0.0813;"St. Andrew Undershaft, London, England"
51.444002;-0.191194;"St. Gregory's, London, England"
51.444002;-0.191194;"St. Gregory's, London, England"
51.50853;-0.12574;"St. Margaret in Lothbury, London, England"
51.50853;-0.12574;"St. Margaret in Lothbury, London, England"
51.506245;-0.105154;"Christ Church, London, England"
51.506245;-0.105154;"Christ Church, London, England"
51.5138;-0.10576;"St. Brides, London, England"
51.5138;-0.10576;"St. Brides, London, England"
51.51348;-0.112117;"Fleet-street, London, England"
51.51348;-0.112117;"Fleet-street, London, England"
51.515306;-0.128446;"St. Giles in the Fields, London, England"
51.515306;-0.128446;"St. Giles in the Fields, London, England"
51.51342;-0.0771;"St. Botolph without Aldgate, London, England"
51.50853;-0.12574;"Bull-Inn in White Chappel, London, England"
51.507908;-0.136573;"St. James's Westminster, London, England"
51.507908;-0.136573;"St. James's Westminster, London, England"
51.50974;-0.140896;"Burlington Gardens, London, England"
51.50974;-0.140896;"Burlington Gardens, London, England"
51.50853;-0.12574;"St. Clements Danes, London, England"
51.50853;-0.12574;"St. Clements Danes, London, England"
51.50853;-0.12574;"Twittenham, London, England"
51.50853;-0.12574;"Twittenham, London, England"
51.50853;-0.12574;"St. Mary White Chappel, London, England"
51.50853;-0.12574;"St. Mary White Chappel, London, England"
51.587364;-0.120967;"Hornsey, London, England"
51.587364;-0.120967;"Hornsey, London, England"
51.5175;-0.04292;"St. Dunstan at Stepney, London, England"
51.5175;-0.04292;"St. Dunstan at Stepney, London, England"
51.50853;-0.12574;"Monmouth Street in Spittle Fields, London, England"
51.50853;-0.12574;"Monmouth Street in Spittle Fields, London, England"
51.456746;-0.08989;"St. Faiths, London, England"
51.50853;-0.12574;"St. Paul's Church Yard, London, England"
51.5175;-0.04292;"St. Dunstan at Stepney, London, England"
51.5175;-0.04292;"St. Dunstan at Stepney, London, England"
51.50853;-0.12574;"Rolls Liberty, London, England"
51.50853;-0.12574;"Rolls Liberty, London, England"
51.50853;-0.12574;"St. Mary White Chappel, London, England"
51.50853;-0.12574;"St. Mary White Chappel, London, England"
51.50853;-0.12574;"St. Andrews Holbourn, London, England"
51.50853;-0.12574;"St. Andrews Holbourn, London, England"
51.515306;-0.128446;"St. Giles in the Fields, London, England"
51.515306;-0.128446;"St. Giles in the Fields, London, England"
51.50853;-0.12574;"St. Mary White Chapel, London, England"
51.50853;-0.12574;"St. Mary White Chapel, London, England"
51.50853;-0.12574;"St. Mary White-Chapel, London, England"
51.513717;-0.068538;"Goodmans-Fields, London, England"
51.5;-0.11667;"St. Ann's Westminster, London, England"
51.50853;-0.12574;"St. Katharine Coleman, London, England"
51.507908;-0.136573;"St. James's Westminster, London, England"
51.50853;-0.12574;"St. Sepulchres, London, England"
51.50853;-0.12574;"St. Martins in the Fields, London, England"
51.50853;-0.12574;"St. Martins in the Fields, London, England"
51.51342;-0.0771;"St. Botolph without Aldgate, London, England"
51.50853;-0.12574;"St. Mary in White Chappel, London, England"
51.50853;-0.12574;"St. Mary in White Chappel, London, England"
51.51874;-0.094;"St. Giles without Cripplegate, London, England"
51.51874;-0.094;"St. Giles without Cripplegate, London, England"
51.51874;-0.094;"St. Giles without Cripplegate, London, England"
51.515306;-0.128446;"St. Giles in the Fields, London, England"
51.51424;-0.12471;"St. Paul's Covent Garden, London, England"
51.5138;-0.10576;"St. Brides, London, England"
51.50853;-0.12574;"Bride-Lane in Fleet-Street, London, England"
51.51336;-0.08597;"St. Michael's Cornhill, London, England"
51.50853;-0.12574;"Finch-Lane, London, England"
51.51874;-0.094;"St. Giles without Cripplegate, London, England"
51.51874;-0.094;"St. Giles without Cripplegate, London, England"
51.50853;-0.12574;"St. Sepulcheres, London, England"
51.50853;-0.12574;"St. Sepulcheres, London, England"
51.50853;-0.12574;"St. Botolph's Billinsgate, London, England"
51.50853;-0.12574;"St. Botolph's Billinsgate, London, England"
51.50853;-0.12574;"Three Tun Taven at Bilinsgate, London, England"
51.50853;-0.12574;"Three Tun Taven at Bilinsgate, London, England"
51.50853;-0.12574;"St. Margarets New Fish-street, London, England"
51.50853;-0.12574;"St. Margarets New Fish-street, London, England"
51.50853;-0.12574;"St. Sepulchres, London, England"
51.50853;-0.12574;"St. Sepulchres, London, England"
51.50853;-0.12574;"St. Giles's Cripplegate, London, England"
51.50853;-0.12574;"St. Giles's Cripplegate, London, England"
51.50853;-0.12574;"St. Vedaft alias Foster, London, England"
51.50853;-0.12574;"Gutter-Lane, London, England"
51.50853;-0.12574;"St Lawrence Pountney, London, England"
51.50853;-0.12574;"St. James Dukes Place, London, England"
51.50853;-0.12574;"St. James Dukes Place, London, England"
51.50853;-0.12574;"St. Katharine Coleman, London, England"
51.50853;-0.12574;"St. Katharine Coleman, London, England"
51.5;-0.11667;"St. Margarets Westminster, London, England"
51.5;-0.11667;"St. Margarets Westminster, London, England"
51.5175;-0.04292;"St. Dunstan at Stepney, London, England"
51.5175;-0.04292;"St. Dunstan at Stepney, London, England"
51.50853;-0.12574;"St. Ann Black Fryers, London, England"
51.557697;-0.077282;"Stoke Newington, London, England"
51.557697;-0.077282;"Stoke Newington, London, England"
51.526858;-0.077162;"St. Leonard Shoreditch, London, England"
51.526858;-0.077162;"St. Leonard Shoreditch, London, England"
51.50506;-0.05682;"St. John at Wapping, London, England"
51.50506;-0.05682;"St. John at Wapping, London, England"
51.50853;-0.12574;"St. Mary White-Chappel, London, England"
51.50853;-0.12574;"St. Mary White-Chappel, London, England"
51.50853;-0.12574;"Rag-Fair, London, England"
51.50853;-0.12574;"Rag-Fair, London, England"
51.50853;-0.12574;"St. Dunstan's in the West, London, England"
51.50853;-0.12574;"St. Dunstan's in the West, London, England"
51.5161;-0.11203;"Rummer Tavern in Chancery Lane, London, England"
51.5161;-0.11203;"Rummer Tavern in Chancery Lane, London, England"
51.515306;-0.128446;"St. Giles in the Fields, London, England"
51.515306;-0.128446;"St. Giles in the Fields, London, England"
51.50853;-0.12574;"St. Clements Danes, London, England"
51.50853;-0.12574;"St. Clements Danes, London, England"
51.50853;-0.12574;"St. Clements Danes, London, England"
51.50853;-0.12574;"St. Clements Danes, London, England"
51.50853;-0.12574;"Liberty of Norton Falgate, London, England"
51.50853;-0.12574;"Liberty of Norton Falgate, London, England"
51.50853;-0.12574;"St. Dunstan's in the West, London, England"
51.51348;-0.112117;"Fleet-street, London, England"
51.50853;-0.12574;"St. James Garlickhith, London, England"
51.50853;-0.12574;"St. Leonard Eastcheap, London, England"
51.50968;-0.08262;"St. Dunstan in the East, London, England"
51.50968;-0.08262;"St. Dunstan in the East, London, England"
51.51336;-0.08597;"St. Peters Cornhill, London, England"
51.51336;-0.08597;"St. Peters Cornhill, London, England"
51.51336;-0.08597;"St. Michael's Cornhill, London, England"
51.50853;-0.12574;"St. Olave's Hart-Street, London, England"
51.50853;-0.12574;"St. Olave's Hart-Street, London, England"
51.5138;-0.10576;"St. Brides, London, England"
51.5138;-0.10576;"St. Brides, London, England"
51.487542;-0.16822;"Chelsea, London, England"
51.487542;-0.16822;"Chelsea, London, England"
51.50853;-0.12574;"St Katharine Coleman, London, England"
51.526858;-0.077162;"St. Leonard Shoreditch, London, England"
51.526858;-0.077162;"St. Leonard Shoreditch, London, England"
51.50853;-0.12574;"Stepney Church, London, England"
51.50853;-0.12574;"Stepney Church, London, England"
51.50853;-0.12574;"St. Martins in the Fields, London, England"
51.50853;-0.12574;"St. Martins in the Fields, London, England"
51.51342;-0.0771;"St. Botolph without Aldgate, London, England"
51.51342;-0.0771;"St. Botolph without Aldgate, London, England"
51.50853;-0.12574;"St. Clements Danes, London, England"
51.50853;-0.12574;"St. Clements Danes, London, England"
51.50853;-0.12574;"St. Mary White Chapel, London, England"
51.50853;-0.12574;"St. Mary White Chapel, London, England"
51.515306;-0.128446;"St. Giles in the Fields, London, England"
51.515306;-0.128446;"St. Giles in the Fields, London, England"
51.51378;-0.0813;"St. Andrew Undershaft, London, England"
51.507191;-0.132358;"St. James Westminster, London, England"
51.507191;-0.132358;"St. James Westminster, London, England"
51.50853;-0.12574;"St. Mary White Chapel, London, England"
51.50853;-0.12574;"St. Mary White Chapel, London, England"
51.5175;-0.04292;"St. Dunstan at Stepney, London, England"
51.5175;-0.04292;"St. Dunstan at Stepney, London, England"
51.50853;-0.12574;"St. Mary Abchurch, London, England"
51.50853;-0.12574;"St. Clements Danes, London, England"
51.50853;-0.12574;"St. Clements Danes, London, England"
51.50853;-0.12574;"Fountain Tavern in the Strand, London, England"
51.50853;-0.12574;"Fountain Tavern in the Strand, London, England"
51.5175;-0.04292;"St. Dunstan at Stepney, London, England"
51.5175;-0.04292;"St. Dunstan at Stepney, London, England"
51.51424;-0.12471;"St. Paul's Covent-Garden, London, England"
51.51424;-0.12471;"St. Paul's Covent-Garden, London, England"
51.50853;-0.12574;"St. Mary in the Savoy, London, England"
51.50853;-0.12574;"St. Mary in the Savoy, London, England"
51.50853;-0.12574;"St. Clements Danes, London, England"
51.50853;-0.12574;"St. Clements Danes, London, England"
51.5138;-0.10576;"St. Brides, London, England"
51.50853;-0.12574;"St. Botolph without Aldersgate, London, England"
51.50853;-0.12574;"St. Botolph without Aldersgate, London, England"
51.526858;-0.077162;"St. Leonard Shoreditch, London, England"
51.526858;-0.077162;"St. Leonard Shoreditch, London, England"
51.50853;-0.12574;"St. Giles Cripplegate, London, England"
51.50853;-0.12574;"St. Giles Cripplegate, London, England"
51.50853;-0.12574;"St. Martins in the Fields, London, England"
51.50853;-0.12574;"St. Martins in the Fields, London, England"
51.50853;-0.12574;"St. Mary White Chappel, London, England"
51.50853;-0.12574;"Parish Church of Wanstead in Essex, London, England"
51.50853;-0.12574;"St. Mary in the Savoy, London, England"
51.50853;-0.12574;"Somerset Gate, London, England"
51.51424;-0.12471;"St. Paul's Covent-Garden, London, England"
51.511994;-0.122796;"Covent Garden-Market, London, England"
51.474422;-0.206077;"Fulham, London, England"
51.515306;-0.128446;"St. Giles in the Fields, London, England"
51.50853;-0.12574;"Vine Tavern in Wildstreet, London, England"
51.50853;-0.12574;"St. Martin's in the Field, London, England"
51.617421;-0.309511;"Stanmore, London, England"
51.515306;-0.128446;"St. Giles in the Fields, London, England"
51.51278;-0.12038;"Duke of Malborough's-Head in Drury-Lane, London, England"
51.50853;-0.12574;"St. Andrews Holbourn, London, England"
51.51874;-0.094;"St. Giles without Cripplegate, London, England"
51.51342;-0.0771;"St. Botolph without Aldgate, London, England"
51.507191;-0.132358;"St. James Westminster, London, England"
51.50853;-0.12574;"St. Giles's in the Fields, London, England"
51.52438;-0.11022;"St. James Clerkenwell, London, England"
51.50853;-0.12574;"Edminton, London, England"
51.50853;-0.12574;"St. Andrews Holbourn, London, England"
51.52438;-0.11022;"St. James at Clerkenwell, London, England"
51.53622;-0.10304;"White Lyon Inn Yard at Islington, London, England"
51.54909;-0.053236;"St. John at Hackney, London, England"
51.50853;-0.12574;"Shackelwell, London, England"
51.54909;-0.053236;"St. John at Hackney, London, England"
51.50853;-0.12574;"St. Mildred in the Poultry, London, England"
51.50853;-0.12574;"St. Mary Hill, London, England"
51.51874;-0.094;"St. Giles without Cripplegate, London, England"
51.52793;-0.10719;"Livery Stables in Finsbury, London, England"
51.507191;-0.132358;"St. James Westminster, London, England"
51.50307;-0.133185;"St. James's Park, London, England"
51.50853;-0.12574;"St. Clements Danes, London, England"
51.51424;-0.12471;"St. Paul's Covent-Garden, London, England"
51.51424;-0.12471;"Rose Tavern, Covent-Garden, London, England"
51.50853;-0.12574;"St. Margaret in Lothbury, London, England"
51.50853;-0.12574;"Lothbury, London, England"
51.515306;-0.128446;"St. Giles in the Fields, London, England"
51.515306;-0.128446;"St. Giles in the Fields, London, England"
51.50853;-0.12574;"St. Martins in the Fields, London, England"
51.50853;-0.12574;"St. Martins in the Fields, London, England"
51.50853;-0.12574;"St. Leonard Shorditch, London, England"
51.50853;-0.12574;"St. Leonard Shorditch, London, England"
51.53544;-0.08841;"Red-Lion-Fields in Hoxton, London, England"
51.53544;-0.08841;"Red-Lion-Fields in Hoxton, London, England"
51.507908;-0.136573;"St. James's Westminster, London, England"
51.50853;-0.12574;"St. Martins in the Fields, London, England"
51.50853;-0.12574;"St. Andrews Holbourn, London, England"
51.507908;-0.136573;"St. James's Westminster, London, England"
51.507908;-0.136573;"St. James's Westminster, London, England"
51.50853;-0.12574;"Passage to the Masquerade-House, London, England"
51.515306;-0.128446;"St. Giles in the Fields, London, England"
51.5138;-0.10576;"St. Brides, London, England"
51.50853;-0.12574;"St. Botolph without Aldersgate, London, England"
51.50853;-0.12574;"Castle and Falcon-Inn, London, England"
51.50853;-0.12574;"St. James in Dukes-place, London, England"
51.52609;-0.01665;"St. Mary Le Bow, London, England"
51.602533;-0.17462;"Bow-Lane, London, England"
51.5138;-0.10576;"St. Brides, London, England"
51.5138;-0.10576;"St. Brides, London, England"
51.50853;-0.12574;"St.Bennet Gracechruch, London, England"
51.50853;-0.12574;"St.Bennet Gracechruch, London, England"
51.50853;-0.12574;"Lombard-street, London, England"
51.50853;-0.12574;"Lombard-street, London, England"
51.5138;-0.10576;"St. Brides, London, England"
51.5138;-0.10576;"St. Brides, London, England"
51.51135;-0.05663;"St. Paul at Shadwell, London, England"
51.51135;-0.05663;"St. Paul at Shadwell, London, England"
51.5175;-0.04292;"St. Dunstan at Stepney, London, England"
51.50853;-0.12574;"St. Mary in the Savoy, London, England"
51.50853;-0.12574;"New Church in the Strand, London, England"
51.50853;-0.12574;"St. Clements Danes, London, England"
51.51874;-0.094;"St. Giles without Cripplegate, London, England"
51.50853;-0.12574;"St. Martins in the Fields, London, England"
51.50853;-0.12574;"St. Olave Silver-street, London, England"
51.5;-0.11667;"St. Margaret in Westminster, London, England"
51.5;-0.11667;"St. Margaret in Westminster, London, England"
51.5;-0.11667;"Grey Coat School in Westminster, London, England"
51.5;-0.11667;"Grey Coat School in Westminster, London, England"
51.51635;-0.08144;"St. Botolph Bishopsgate, London, England"
51.50853;-0.12574;"Bishopsgate-Street, London, England"
51.51676;-0.08164;"St. Botolph without Bishopsgate, London, England"
51.50853;-0.12574;"Bishops-gate-Street, London, England"
51.506245;-0.105154;"Christ-church, London, England"
51.50853;-0.12574;"St. James, Dukes Place, London, England"
51.50853;-0.12574;"St. James, Dukes Place, London, England"
51.50853;-0.12574;"St. Dionis Backchurch, London, England"
51.50853;-0.12574;"St. Dionis Backchurch, London, England"
51.467458;-0.053868;"St. Thomas the Apostle, London, England"
51.467458;-0.053868;"St. Thomas the Apostle, London, England"
51.50853;-0.12574;"St. Katharine Coleman, London, England"
51.50853;-0.12574;"St. Katharine Coleman, London, England"
51.50853;-0.12574;"St. Peters in Middlesex, London, England"
51.51424;-0.12471;"St. Paul's Covent Garden, London, England"
51.5175;-0.04292;"St. Dunstan at Stepney, London, England"
51.50853;-0.12574;"St. Mildred in the Poultry, London, England"
51.50853;-0.12574;"Poultry Church, London, England"
51.50853;-0.12574;"St.Andrews Holbourn, London, England"
51.50853;-0.12574;"St.Andrews Holbourn, London, England"
51.50853;-0.12574;"Kingsgate-Street, London, England"
51.50853;-0.12574;"Kingsgate-Street, London, England"
51.515306;-0.128446;"St. Giles in the Fields, London, England"
51.515306;-0.128446;"St. Giles in the Fields, London, England"
51.50853;-0.12574;"St. Andrews Holbourn, London, England"
51.50853;-0.12574;"St. Andrews Holbourn, London, England"
51.50853;-0.12574;"St. Martins in the Fields, London, England"
51.50853;-0.12574;"St. Martins in the Fields, London, England"
51.515306;-0.128446;"St. Giles in the Fields, London, England"
51.515306;-0.128446;"St. Giles in the Fields, London, England"
51.50853;-0.12574;"St. Peters in Middlesex, London, England"
51.50853;-0.12574;"St. Peters in Middlesex, London, England"
51.50853;-0.12574;"St. Mary Woolnoth, London, England"
51.50853;-0.12574;"Lombard-Street, London, England"
51.513109;-0.113857;"St. Clement Danes, London, England"
51.513109;-0.113857;"St. Clement Danes, London, England"
51.50853;-0.12574;"St. Andrews Holbourn, London, England"
51.50853;-0.12574;"St. Andrews Holbourn, London, England"
51.50853;-0.12574;"Grays-Inn-Lane, London, England"
51.50853;-0.12574;"Grays-Inn-Lane, London, England"
51.597325;-0.180559;"Finchley, London, England"
51.597325;-0.180559;"Finchley, London, England"
51.50853;-0.12574;"St. Michael at Quern, London, England"
51.616683;-0.087295;"Cheapside, London, England"
51.51336;-0.08597;"St. Peters Cornhill, London, England"
51.51296;-0.08704;"Change Alley, London, England"
51.50853;-0.12574;"St. Dunstan's in the West, London, England"
51.50853;-0.12574;"St Dunstan's Church in Fleet-Street, London, England"
51.50853;-0.12574;"All Hallows Barkin, London, England"
51.50853;-0.12574;"St. Sepulchres, London, England"
51.50853;-0.12574;"St. Sepulchres, London, England"
51.50853;-0.12574;"St. Ethelburga, London, England"
51.50853;-0.12574;"St. Ethelburga, London, England"
51.54796;-0.479496;"Christ's Church, London, England"
51.54796;-0.479496;"Christ's Church, London, England"
51.5175;-0.04292;"St. Dunstan at Stepney, London, England"
51.5175;-0.04292;"St. Dunstan at Stepney, London, England"
51.50853;-0.12574;"St. Mildred in the Poultry, London, England"
51.50853;-0.12574;"St. Mildred in the Poultry, London, England"
51.50853;-0.12574;"the George at Stocks Market, London, England"
51.50853;-0.12574;"the George at Stocks Market, London, England"
51.5138;-0.10576;"St. Brides, London, England"
51.50853;-0.12574;"St. Mary White Chapel, London, England"
51.50853;-0.12574;"St. Mary White Chapel, London, England"
51.5175;-0.04292;"St. Dunstan at Stepney, London, England"
51.5175;-0.04292;"St. Dunstan at Stepney, London, England"
51.50853;-0.12574;"St. Andrew in Holbourn, London, England"
51.50853;-0.12574;"St. Andrew in Holbourn, London, England"
51.520501;-0.109557;"Leather Lane, London, England"
51.520501;-0.109557;"Leather Lane, London, England"
51.50853;-0.12574;"St. Clements Danes, London, England"
51.50853;-0.12574;"St. Clements Danes, London, England"
51.428314;-0.011219;"St. John Baptist, London, England"
51.50853;-0.12574;"St Martin's in the Fields, London, England"
51.50853;-0.12574;"St Martin's in the Fields, London, England"
51.52438;-0.11022;"St. James at Clerkenwell, London, England"
51.52438;-0.11022;"St. James at Clerkenwell, London, England"
51.508824;-0.126659;"St. Martin in the Fields, London, England"
51.508824;-0.126659;"St. Martin in the Fields, London, England"
51.468356;-0.326311;"Isleworth, London, England"
51.468356;-0.326311;"Isleworth, London, England"
51.446794;-0.328339;"Twickenham, London, England"
51.446794;-0.328339;"Twickenham, London, England"
51.50853;-0.12574;"St. Martins in the Fields, London, England"
51.50853;-0.12574;"St. Martins in the Fields, London, England"
51.5;-0.11667;"St. Anns Westminster, London, England"
51.5;-0.11667;"St. Anns Westminster, London, England"
51.51874;-0.094;"St. Giles without Cripplegate, London, England"
51.5175;-0.04292;"St. Dunstan at Stepney, London, England"
51.5175;-0.04292;"St. Dunstan at Stepney, London, England"
51.51874;-0.094;"St. Giles without Cripplegate, London, England"
51.50853;-0.12574;"St. Botolph without Aldersgate, London, England"
51.51859;-0.09705;"Aldersgate street, London, England"
51.50853;-0.12574;"St. Mary in the Savoy, London, England"
51.50853;-0.12574;"St. Mary in the Savoy, London, England"
51.5;-0.11667;"St. Ann in Westminster, London, England"
51.5;-0.11667;"St. Ann in Westminster, London, England"
51.50853;-0.12574;"St. Andrew in Holbourn, London, England"
51.50853;-0.12574;"St. Andrew in Holbourn, London, England"
51.50853;-0.12574;"Holbourn, London, England"
51.50853;-0.12574;"Holbourn, London, England"
51.50853;-0.12574;"St. Clements Danes, London, England"
51.50853;-0.12574;"St. Clements Danes, London, England"
51.517001;-0.114523;"Lincolns Inn, London, England"
51.517001;-0.114523;"Lincolns Inn, London, England"
51.50853;-0.12574;"St. Olave Hart-Street, London, England"
51.51874;-0.094;"St. Giles without Cripplegate, London, England"
51.51874;-0.094;"St. Giles without Cripplegate, London, England"
51.50853;-0.12574;"Bowling-Alley into White-Cross-street, London, England"
51.50853;-0.12574;"Bowling-Alley into White-Cross-street, London, England"
51.50853;-0.12574;"Precinct of St. Katharines, London, England"
51.50853;-0.12574;"Precinct of St. Katharines, London, England"
51.515306;-0.128446;"St. Giles in the Fields, London, England"
51.515306;-0.128446;"St. Giles in the Fields, London, England"
51.52438;-0.11022;"St. James at Clerkenwell, London, England"
51.52438;-0.11022;"St. James at Clerkenwell, London, England"
51.54909;-0.053236;"St. John at Hackney, London, England"
51.507191;-0.132358;"St. James in Westminster, London, England"
51.468356;-0.326311;"Isleworth, London, England"
51.50853;-0.12574;"St. Clements Danes, London, England"
51.513196;-0.121861;"Bow-street, London, England"
51.50853;-0.12574;"St. Andrew in Holbourn, London, England"
51.507191;-0.132358;"St. James in Westminster, London, England"
51.51676;-0.08164;"St. Botolph without Bishopsgate, London, England"
51.508824;-0.126659;"St. Martin in the Fields, London, England"
51.508824;-0.126659;"St. Martin in the Fields, London, England"
51.51342;-0.0771;"St. Botolph without Aldgate, London, England"
51.51342;-0.0771;"St. Botolph without Aldgate, London, England"
51.513109;-0.113857;"St. Clement Danes, London, England"
51.513109;-0.113857;"St. Clement Danes, London, England"
51.5175;-0.04292;"St. Dunstan at Stepney, London, England"
51.5175;-0.04292;"St. Dunstan at Stepney, London, England"
51.587823;-0.114581;"Church-Lane, London, England"
51.587823;-0.114581;"Church-Lane, London, England"
51.50506;-0.05682;"St. John at Wapping, London, England"
51.50506;-0.05682;"St. John at Wapping, London, England"
51.50853;-0.12574;"St. Mary in White Chappel, London, England"
51.50853;-0.12574;"St. Mary in White Chappel, London, England"
51.50853;-0.12574;"St. Vedast alias Foster, London, England"
51.515306;-0.128446;"St. Giles in the Fields, London, England"
51.515306;-0.128446;"St. Giles in the Fields, London, England"
51.513109;-0.113857;"St. Clement Danes, London, England"
51.513109;-0.113857;"St. Clement Danes, London, England"
51.508824;-0.126659;"St. Martin in the Fields, London, England"
51.508824;-0.126659;"St. Martin in the Fields, London, England"
51.5;-0.11667;"St. Margaret in Westminster, London, England"
51.5;-0.11667;"St. Margaret in Westminster, London, England"
51.50853;-0.12574;"Edminton, London, England"
51.53622;-0.10304;"St. Mary at Islington, London, England"
51.50853;-0.12574;"St. Mary Abchurch, London, England"
51.50853;-0.12574;"St. Andrew in Holbourn, London, England"
51.50853;-0.12574;"St. Andrew in Holbourn, London, England"
51.50853;-0.12574;"St. Martins in the Fields, London, England"
51.50853;-0.12574;"St. Martins in the Fields, London, England"
51.52438;-0.11022;"St. James at Clerkenwell, London, England"
51.52438;-0.11022;"St. James at Clerkenwell, London, England"
51.50853;-0.12574;"Garden-Alleys, London, England"
51.50853;-0.12574;"Garden-Alleys, London, England"
51.52438;-0.11022;"St. Jame's at Clerkenwell, London, England"
51.52438;-0.11022;"St. Jame's at Clerkenwell, London, England"
51.50853;-0.12574;"St. Mary in Whitechappel, London, England"
51.50853;-0.12574;"St. Mary in Whitechappel, London, England"
51.50853;-0.12574;"Norton Falgate, London, England"
51.50853;-0.12574;"Norton Falgate, London, England"
51.50853;-0.12574;"St. Mary in White-Chappel, London, England"
51.50853;-0.12574;"St. Mary in White-Chappel, London, England"
51.50853;-0.12574;"Kings Arms in White-Chappel, London, England"
51.50853;-0.12574;"Kings Arms in White-Chappel, London, England"
51.5;-0.11667;"St. Margaret in Westminster, London, England"
51.5;-0.11667;"St. Margaret in Westminster, London, England"
51.54909;-0.053236;"St. John at Hackney, London, England"
51.5;-0.11667;"St. Ann in Westminster, London, England"
51.50853;-0.12574;"St. Andrew in Holbourn, London, England"
51.515306;-0.128446;"St. Giles in the Fields, London, England"
51.50853;-0.12574;"St. Andrew in Holbourn, London, England"
51.50853;-0.12574;"Ship lying at Union-Stairs, London, England"
51.50853;-0.12574;"St. Mary in the Savoy, London, England"
51.515306;-0.128446;"St. Giles in the Fields, London, England"
51.508824;-0.126659;"St. Martin in the Fields, London, England"
51.5175;-0.04292;"St. Dunstan at Stepney, London, England"
51.50853;-0.12574;"St. Mary Hill, London, England"
51.50853;-0.12574;"Billinsgate, London, England"
51.515306;-0.128446;"St. Giles in the Fields, London, England"
51.515306;-0.128446;"St. Giles in the Fields, London, England"
51.50853;-0.12574;"St. Mary in Whitchapel, London, England"
51.50853;-0.12574;"St. Mary in Whitchapel, London, England"
51.51382;-0.06583;"St. Mary in Whitechapel, London, England"
51.51382;-0.06583;"St. Mary in Whitechapel, London, England"
51.515306;-0.128446;"St. Giles in the Fields, London, England"
51.515306;-0.128446;"St. Giles in the Fields, London, England"
51.50823;-0.0763;"St. Katharine by the Tower, London, England"
51.50823;-0.0763;"St. Katharine by the Tower, London, England"
51.51382;-0.06583;"St. Mary Whitechapel, London, England"
51.5175;-0.04292;"St. Dunstan at Stepney, London, England"
51.50853;-0.12574;"St. Mary White Chappel, London, England"
51.51135;-0.05663;"St Paul at Shadwell, London, England"
51.5;-0.11667;"St. Ann in Westminster, London, England"
51.50853;-0.12574;"All Hallows Barkin, London, England"
51.50853;-0.12574;"St. Botolph without Aldersgate, London, England"
51.50853;-0.12574;"St. Mary Woolnoth, London, England"
51.50853;-0.12574;"Lombard-Street, London, England"
51.50853;-0.12574;"St. Michael in Crooked-Lane, London, England"
51.50853;-0.12574;"St. Andrew in Holbourn, London, England"
51.51874;-0.094;"St. Giles without Cripplegate, London, England"
51.51676;-0.08164;"St. Botolph without Bishopsgate, London, England"
51.50853;-0.12574;"St. Botolph without Aldersgate, London, England"
51.511168;-0.370248;"Trinity Parish, London, England"
51.508824;-0.126659;"St. Martin in the Fields, London, England"
51.508824;-0.126659;"St. Martin in the Fields, London, England"
51.51874;-0.094;"St. Giles without Cripplegate, London, England"
51.51874;-0.094;"St. Giles without Cripplegate, London, England"
51.50506;-0.05682;"St. John at Wapping, London, England"
51.50506;-0.05682;"St. John at Wapping, London, England"
51.516305;-0.179242;"Paddington, London, England"
51.516305;-0.179242;"Paddington, London, England"
51.515306;-0.128446;"St. Giles in the Fields, London, England"
51.515306;-0.128446;"St. Giles in the Fields, London, England"
51.51135;-0.05663;"St. Paul at Shadwell, London, England"
51.51135;-0.05663;"St. Paul at Shadwell, London, England"
51.499834;-0.126706;"St. Margaret Westminster, London, England"
51.499834;-0.126706;"St. Margaret Westminster, London, England"
51.5138;-0.10576;"St. Brides, London, England"
51.5175;-0.04292;"St. Dunstan at Stepney, London, England"
51.515306;-0.128446;"St. Giles in the Fields, London, England"
51.515306;-0.128446;"St. Giles in the Fields, London, England"
51.50853;-0.12574;"Newtonners Lane, London, England"
51.513109;-0.113857;"St. Clement Danes, London, England"
51.50853;-0.12574;"Fleet Prison, London, England"
51.52609;-0.01665;"St. Mary le-Bow, London, England"
51.50853;-0.12574;"St. Botolph without Aldersgate, London, England"
51.4672;-0.295887;"Christchurch, London, England"
51.50968;-0.08262;"St. Dunstan in the East, London, England"
51.50853;-0.12574;"St. Mary in White Chapel, London, England"
51.50853;-0.12574;"St. Mary in White Chapel, London, England"
51.5175;-0.04292;"St. Dunstan at Stepney, London, England"
51.5175;-0.04292;"St. Dunstan at Stepney, London, England"
51.52509;-0.07695;"St. Leonard in Shoreditch, London, England"
51.52509;-0.07695;"St. Leonard in Shoreditch, London, England"
51.52609;-0.01665;"St. Mary le Bow, London, England"
51.50853;-0.12574;"St. Mary in White Chapel, London, England"
51.50853;-0.12574;"St. Mary in White Chapel, London, England"
51.50853;-0.12574;"St. Mary in Whitechappel, London, England"
51.50853;-0.12574;"St. Mary in Whitechappel, London, England"
51.508824;-0.126659;"St. Martin in the Fields, London, England"
51.508824;-0.126659;"St. Martin in the Fields, London, England"
51.50853;-0.12574;"St. Andrew in Holbourn, London, England"
51.517402;-0.046219;"Stepney, London, England"
51.50853;-0.12574;"S. Martin's in the Fields, London, England"
51.50853;-0.12574;"S. Giles's in the Fields, London, England"
51.51753;-0.12045;"S. Andrew's Holborn, London, England"
51.5;-0.11667;"S. Ann's Westminster, London, England"
51.523727;-0.105555;"Clerkenwell, London, England"
51.50853;-0.12574;"Butcher's Alley, London, England"
51.5;-0.11667;"S. Ann's Westminster, London, England"
51.5;-0.11667;"S. Ann's Westminster, London, England"
51.55567;-0.213815;"Poultry, London, England"
51.50853;-0.12574;"Lothbury, London, England"
51.50853;-0.12574;"Garlick-Hithe, London, England"
51.50853;-0.12574;"S. Giles's in the Fields, London, England"
51.52541;-0.16806;"S. Mary-le-Bone, London, England"
51.50853;-0.12574;"S. Clement Danes, London, England"
51.50853;-0.12574;"S. Giles's in the Fields, London, England"
51.507469;-0.136264;"St. James's Square, London, England"
51.507469;-0.136264;"St. James's Square, London, England"
51.512265;-0.14442;"New-Bond-street, London, England"
51.512265;-0.14442;"New-Bond-street, London, England"
51.562279;-0.136867;"Silver-Court, London, England"
51.562279;-0.136867;"Silver-Court, London, England"
51.452171;-0.293293;"Bishopsgate, London, England"
51.523727;-0.105555;"Clerkenwell, London, England"
51.523727;-0.105555;"Clerkenwell, London, England"
51.50853;-0.12574;"St. Paul's Church-Yard, London, England"
51.50853;-0.12574;"S. Martin's in the Fields, London, England"
51.50853;-0.12574;"S. Sepulchres, London, England"
51.50853;-0.12574;"S. John-street, London, England"
51.52609;-0.01665;"S. Mary le Bow, London, England"
51.50853;-0.12574;"S. Giles's in the Fields, London, England"
51.50853;-0.12574;"S. Ann's Westm., London, England"
51.51753;-0.12045;"S. Andrew's Holborn, London, England"
51.50853;-0.12574;"S. Giles's in the Fields, London, England"
51.50853;-0.12574;"S. Martin's in the Fields, London, England"
51.50853;-0.12574;"S. Giles's in the Fields, London, England"
51.50853;-0.12574;"S. Dunstan's in the West, London, England"
51.50853;-0.12574;"S. Dunstan's in the West, London, England"
51.50853;-0.12574;"S. Martin's in the Fields, London, England"
51.50853;-0.12574;"S. Martin's in the Fields, London, England"
51.51753;-0.12045;"S. Andrew's Holborn, London, England"
51.51753;-0.12045;"S. Andrew's Holborn, London, England"
51.51753;-0.12045;"S. Andrew's Holborn, London, England"
51.51753;-0.12045;"S. Andrew's Holborn, London, England"
51.517402;-0.046219;"Stepney, London, England"
51.517402;-0.046219;"Stepney, London, England"
51.50853;-0.12574;"Finchly, London, England"
51.570709;-0.06904;"Stamford-Hill, London, England"
51.570709;-0.06904;"Stamford-Hill, London, England"
51.505436;-0.058729;"Wapping, London, England"
51.505436;-0.058729;"Wapping, London, England"
51.50853;-0.12574;"Bull and Butcher in Long-lane, London, England"
51.50853;-0.12574;"Bull and Butcher in Long-lane, London, England"
51.452171;-0.293293;"Bishopsgate, London, England"
51.452171;-0.293293;"Bishopsgate, London, England"
51.50853;-0.12574;"Southwark Fair, London, England"
51.50853;-0.12574;"Southwark Fair, London, England"
51.51859;-0.09705;"Hare Court, in Aldersgate-street, London, England"
51.495307;-0.255001;"Turnham Green, London, England"
51.495307;-0.255001;"Turnham Green, London, England"
51.498995;-0.199123;"Kensington, London, England"
51.498995;-0.199123;"Kensington, London, England"
51.50853;-0.12574;"Vine-street, Long-Acre, London, England"
51.50853;-0.12574;"S. Dunstan's in the West, London, England"
51.50853;-0.12574;"S. Dunstan's Church in Fleetstreet, London, England"
51.526669;-0.079893;"Shoreditch, London, England"
51.526669;-0.079893;"Shoreditch, London, England"
51.50853;-0.12574;"S. Giles's in the Fields, London, England"
51.50853;-0.12574;"S. Giles's in the Fields, London, England"
51.50853;-0.12574;"S. Giles's in the Fields, London, England"
51.50853;-0.12574;"S. Giles's in the Fields, London, England"
51.498995;-0.199123;"Kensington, London, England"
51.50853;-0.12574;"S. Giles's Cripplegate, London, England"
51.51753;-0.12045;"S. Andrew's Holborn, London, England"
51.51753;-0.12045;"S. Andrew's Holborn, London, England"
51.50853;-0.12574;"S. Gregory's, London, England"
51.50853;-0.12574;"S. Gregory's, London, England"
51.510091;-0.067917;"Paul's-Wharf, London, England"
51.517402;-0.046219;"Stepney, London, England"
51.514055;-0.073585;"Aldgate, London, England"
51.50853;-0.12574;"S. Sepulchre's, London, England"
51.5;-0.11667;"S. James's Westminster, London, England"
51.5;-0.11667;"S. Margaret's Westminster, London, England"
51.50853;-0.12574;"S. Giles's in the Fields, London, England"
51.50853;-0.12574;"S. Giles's in the Fields, London, England"
51.50853;-0.12574;"S. Giles's in the Fields, London, England"
51.505436;-0.058729;"Wapping, London, England"
51.50853;-0.12574;"Horns Alehouse at Essex-Stairs, London, England"
51.50853;-0.12574;"Hog-Lane Alms-houses, London, England"
51.517115;-0.120066;"Holborn, London, England"
51.507908;-0.136573;"St. James's Westminster, London, England"
51.507908;-0.136573;"St. James's Westminster, London, England"
51.50853;-0.12574;"St. Giles's in the Fields, London, England"
51.50853;-0.12574;"St. Giles's in the Fields, London, England"
51.50853;-0.12574;"St. James's Garlick-hith, London, England"
51.507908;-0.136573;"St. James's Westminster, London, England"
51.5;-0.11667;"St. Anns Westminster, London, England"
51.50853;-0.12574;"St. Martins in the Fields, London, England"
51.508779;-0.123169;"York Buildings, London, England"
51.50853;-0.12574;"St. Martins in the Fields, London, England"
51.51753;-0.12045;"S. Andrew's Holborn, London, England"
51.514055;-0.073585;"Aldgate, London, England"
51.50853;-0.12574;"Fiery Beacon in Duke's-Place, London, England"
51.5;-0.11667;"S. Margaret's Westminster, London, England"
51.50853;-0.12574;"S. Martin's in the Fields, London, England"
51.517402;-0.046219;"Stepney, London, England"
51.513307;-0.035149;"Limehouse, London, England"
51.50853;-0.12574;"S. Gabriel Fenchurch, London, England"
51.50853;-0.12574;"Whitechappel, London, England"
51.50853;-0.12574;"Whitechappel, London, England"
51.505436;-0.058729;"Wapping, London, England"
51.51753;-0.12045;"S. Andrew's Holborn, London, England"
51.51579;-0.08069;"Camomile-street, London, England"
51.50853;-0.12574;"S. Bride's, London, England"
51.50853;-0.12574;"Old-Jewry, London, England"
51.50853;-0.12574;"Old Jewry, London, England"
51.5;-0.11667;"S. Margaret's Westminster, London, England"
51.5;-0.11667;"S. Margaret's Westminster, London, England"
51.50853;-0.12574;"S. Martin's in the Fields, London, England"
51.50853;-0.12574;"S. Martin's in the Fields, London, England"
51.5;-0.11667;"S. Margaret's Westminster, London, England"
51.5;-0.11667;"S. Margaret's Westminster, London, England"
51.620339;-0.065979;"Edmonton, London, England"
51.509889;-0.076717;"Tower Hill, London, England"
51.51859;-0.09705;"Nag's-Head Alehouse in Aldersgate-Street, London, England"
51.508972;-0.194997;"Old Swan, London, England"
51.50853;-0.12574;"Beach Lane, London, England"
51.50853;-0.12574;"One Swan Yard in Bishopsgate-Street, London, England"
51.507851;-0.087637;"London-Bridge, London, England"
51.50853;-0.12574;"Stocks-Market, London, England"
51.50853;-0.12574;"S. Giles's in the Fields, London, England"
51.50853;-0.12574;"S. Giles's in the Fields, London, England"
51.50853;-0.12574;"S. Giles's in the Fields, London, England"
51.50853;-0.12574;"S. Giles's in the Fields, London, England"
51.379073;-0.155187;"the Savoy, London, England"
51.379073;-0.155187;"the Savoy, London, England"
51.514055;-0.073585;"Aldgate, London, England"
51.514055;-0.073585;"Aldgate, London, England"
51.52609;-0.01665;"S. Mary le Bow, London, England"
51.52609;-0.01665;"S. Mary le Bow, London, England"
51.50853;-0.12574;"S. Dunstan's in the West, London, England"
51.50853;-0.12574;"S. Sepulcbre's, London, England"
51.514055;-0.073585;"Aldgate, London, England"
51.589035;-0.070265;"Tottenham High-Cross, London, England"
51.499555;-0.125482;"Westminster Hall, London, England"
51.499555;-0.125482;"Westminster Hall, London, England"
51.517402;-0.046219;"Stepney, London, England"
51.517402;-0.046219;"Stepney, London, England"
51.525338;-0.033435;"Mile-End, London, England"
51.525338;-0.033435;"Mile-End, London, England"
51.517402;-0.046219;"Stepney, London, England"
51.517402;-0.046219;"Stepney, London, England"
51.50853;-0.12574;"Alhallows Staining, London, England"
51.514055;-0.073585;"Aldgate, London, England"
51.514055;-0.073585;"Aldgate, London, England"
51.50853;-0.12574;"S. Giles's in the Fields, London, England"
51.50853;-0.12574;"S. Giles's in the Fields, London, England"
51.514055;-0.073585;"Aldgate, London, England"
51.514055;-0.073585;"Aldgate, London, England"
51.505436;-0.058729;"Wapping, London, England"
51.505436;-0.058729;"Wapping, London, England"
51.5;-0.11667;"S. James's Westminster, London, England"
51.5;-0.11667;"S. James's Westminster, London, England"
51.50853;-0.12574;"Billingsgate, London, England"
51.50853;-0.12574;"Billingsgate Dock, London, England"
51.50853;-0.12574;"Budge-Row, London, England"
51.50814;-0.273261;"Acton, London, England"
51.50814;-0.273261;"Acton, London, England"
51.49895;-0.056446;"Jamaica, London, England"
51.50853;-0.12574;"Bull Alehouse in Sherborn-Lane, London, England"
51.50853;-0.12574;"Bull Alehouse in Sherborn-Lane, London, England"
51.50853;-0.12574;"Rislip, London, England"
51.50853;-0.12574;"Rislip, London, England"
51.526669;-0.079893;"Shoreditch, London, England"
51.526669;-0.079893;"Shoreditch, London, England"
51.514055;-0.073585;"Aldgate, London, England"
51.50853;-0.12574;"Whitechappel, London, England"
51.50853;-0.12574;"Whitechappel, London, England"
51.50853;-0.12574;"S. Giles's Cripplegate, London, England"
51.50853;-0.12574;"S. Giles's Cripplegate, London, England"
51.50853;-0.12574;"S. Martin's in the Fields, London, England"
51.50853;-0.12574;"S. Martin's in the Fields, London, England"
51.50853;-0.12574;"S. Martin's in the Fields, London, England"
51.50853;-0.12574;"S. Martin's in the Fields, London, England"
51.50853;-0.12574;"S. Martin's in the Fields, London, England"
51.50853;-0.12574;"S. Martin's in the Fields, London, England"
51.50853;-0.12574;"All Hallows Lombard Street, London, England"
51.50853;-0.12574;"S. Katharine's, London, England"
51.50853;-0.12574;"S. Katharine's, London, England"
51.50853;-0.12574;"Little Suffolk Street, London, England"
51.50853;-0.12574;"Little Suffolk Street, London, England"
51.50853;-0.12574;"Eastcheap, London, England"
51.557697;-0.077282;"Stoke Newington, London, England"
51.50853;-0.12574;"Billingsgate, London, England"
51.50853;-0.12574;"Lyon's-Key, London, England"
51.507587;-0.140417;"St. James's-street, London, England"
51.538429;-0.099905;"Islington, London, England"
51.651712;-0.083214;"Enfield, London, England"
51.498995;-0.199123;"Kensington, London, England"
51.50853;-0.12574;"St. Martins in the Fields, London, England"
51.50853;-0.12574;"St. Martin's-street, Leicester-fields, London, England"
51.50506;-0.05682;"St. John Wapping, London, England"
51.50853;-0.12574;"St. Andrew's Holbourn, London, England"
51.5;-0.11667;"S. James's Westminster, London, England"
51.5;-0.11667;"S. James's Westminster, London, England"
51.50853;-0.12574;"St. Alban Wood-street, London, England"
51.50853;-0.12574;"S. Martin's in the Fields, London, England"
51.50853;-0.12574;"French Resident's in Suffolk-street, London, England"
51.50853;-0.12574;"S. Dunstan's in the West, London, England"
51.50853;-0.12574;"S. Martin's in the Fields, London, England"
51.50853;-0.12574;"S. Martin's in the Fields, London, England"
51.50853;-0.12574;"Whitechappel, London, England"
51.50853;-0.12574;"Whitechappel, London, England"
51.5;-0.11667;"S. Ann's Westminster, London, England"
51.5;-0.11667;"S. Ann's Westminster, London, England"
51.50853;-0.12574;"Wilsden, London, England"
51.50853;-0.12574;"Wilsden, London, England"
51.50853;-0.12574;"Kilborn, London, England"
51.50853;-0.12574;"Kilborn, London, England"
51.50853;-0.12574;"Holbourn, London, England"
51.50853;-0.12574;"Holbourn, London, England"
51.505436;-0.058729;"Wapping, London, England"
51.50853;-0.12574;"Rag-Fair, London, England"
51.50853;-0.12574;"Mincing-Lane, London, England"
51.50853;-0.12574;"Mincing-Lane, London, England"
51.514055;-0.073585;"Aldgate, London, England"
51.554288;-0.174075;"Hampstead, London, England"
51.554288;-0.174075;"Hampstead, London, England"
51.50853;-0.12574;"Holbourn, London, England"
51.50853;-0.12574;"Chick-lane, London, England"
51.508733;-0.072803;"Smithfield, London, England"
51.50853;-0.12574;"St. Dunstans in the West, London, England"
51.50853;-0.12574;"St. Giles's Cripplegate, London, England"
51.50853;-0.12574;"St. Giles's Cripplegate, London, England"
51.50853;-0.12574;"S. Giles's in the Fields, London, England"
51.50853;-0.12574;"S. Giles's in the Fields, London, England"
51.50853;-0.12574;"S. Giles's is the Fields, London, England"
51.50853;-0.12574;"S. Giles's is the Fields, London, England"
51.671824;-0.032728;"Cornhill, London, England"
51.50853;-0.12574;"Alhallows Staining, London, England"
51.50853;-0.12574;"S. Gabriel Fenchurch, London, England"
51.50853;-0.12574;"S. Sepulchre's, London, England"
51.50853;-0.12574;"King's Head-Inn in Smith-field, London, England"
51.50853;-0.12574;"S. Bennet Gracechurch, London, England"
51.50853;-0.12574;"S. Dunstan's in the West, London, England"
51.50853;-0.12574;"Leadenhall Market, London, England"
51.671824;-0.032728;"Cornhill, London, England"
51.50853;-0.12574;"Lothbury, London, England"
51.50853;-0.12574;"Token-House-Yard in Lothbury, London, England"
51.50853;-0.12574;"S. Dunstan's in the West, London, England"
51.366312;-0.179656;"Savoy, London, England"
51.366312;-0.179656;"Savoy, London, England"
51.50853;-0.12574;"Shoe-Lane in Fleet street, London, England"
51.50853;-0.12574;"S. Sepulchre's, London, England"
51.512889;-0.122531;"Covent-Garden, London, England"
51.50853;-0.12574;"Rummer Tavern in Henrietta-street, London, England"
51.517402;-0.046219;"Stepney, London, England"
51.50853;-0.12574;"Whitechappel, London, England"
51.510384;-0.073413;"Minories, London, England"
51.620339;-0.065979;"Edmonton, London, England"
51.50853;-0.12574;"S. Martin's in the Fields, London, England"
51.51625;-0.09299;"Aldermanbury, London, England"
51.50853;-0.12574;"S. Martin's in the Fields, London, England"
51.50853;-0.12574;"S. Martin's in the Fields, London, England"
51.51125;-0.056924;"Shadwell, London, England"
51.51125;-0.056924;"Shadwell, London, England"
51.50853;-0.12574;"S. Bride's, London, England"
51.5;-0.11667;"S. Margaret's Westminster, London, England"
51.514055;-0.073585;"Aldgate, London, England"
51.50853;-0.12574;"St. Martin's in the Fields, London, England"
51.50853;-0.12574;"Old Swan-Stairs, London, England"
51.589744;-0.22162;"Hendon, London, England"
51.589744;-0.22162;"Hendon, London, England"
51.50853;-0.12574;"Shoe Lane, London, England"
51.50853;-0.12574;"Shoe Lane, London, England"
51.50853;-0.12574;"Kings-Head Court, London, England"
51.50853;-0.12574;"Kings-Head Court, London, England"
51.50853;-0.12574;"S. Giles's in the Fields, London, England"
51.50853;-0.12574;"S. Giles's in the Fields, London, England"
51.51753;-0.12045;"S. Andrew's Holborn, London, England"
51.51753;-0.12045;"S. Andrew's Holborn, London, England"
51.508834;-0.125093;"Strand, London, England"
51.508834;-0.125093;"Strand, London, England"
51.50853;-0.12574;"Cripplegate, London, England"
51.50853;-0.12574;"Cripplegate, London, England"
51.50853;-0.12574;"Cripplegate, London, England"
51.50853;-0.12574;"Cripplegate, London, England"
51.51125;-0.056924;"Shadwell, London, England"
51.51125;-0.056924;"Shadwell, London, England"
51.50853;-0.12574;"S. Sepulchre's, London, England"
51.55567;-0.213815;"Poultry, London, England"
51.55567;-0.213815;"Poultry, London, England"
51.51125;-0.056924;"Shadwell, London, England"
51.452171;-0.293293;"Bishopsgate, London, England"
51.50853;-0.12574;"St. Drinis Back Church, London, England"
51.40606;0.01519;"St. Leonard Bromley, London, England"
51.40606;0.01519;"St. Leonard Bromley, London, England"
51.50853;-0.12574;"Alhallows, Lombard-street, London, England"
51.50853;-0.12574;"Alhallows, Lombard-street, London, England"
51.514055;-0.073585;"Aldgate, London, England"
51.514055;-0.073585;"Aldgate, London, England"
51.50853;-0.12574;"Cripplegate, London, England"
51.50853;-0.12574;"Cripplegate, London, England"
51.50853;-0.12574;"Golden-Lane, London, England"
51.50853;-0.12574;"Golden-Lane, London, England"
51.452171;-0.293293;"Bishopsgate, London, England"
51.505436;-0.058729;"Wapping, London, England"
51.505436;-0.058729;"Wapping, London, England"
51.50853;-0.12574;"Whitechappel, London, England"
51.50853;-0.12574;"Whitechappel, London, England"
51.50853;-0.12574;"S. Giles in the Fields, London, England"
51.50853;-0.12574;"S. Giles in the Fields, London, England"
51.50853;-0.12574;"S. Clement Danes, London, England"
51.50853;-0.12574;"S. Clement Danes, London, England"
51.50853;-0.12574;"Whitechappel, London, England"
51.50853;-0.12574;"Whitechappel, London, England"
51.492314;-0.263818;"Chiswick, London, England"
51.492314;-0.263818;"Chiswick, London, England"
51.483484;-0.348995;"Thistleworth, London, England"
51.483484;-0.348995;"Thistleworth, London, England"
51.492314;-0.263818;"Chiswick, London, England"
51.492314;-0.263818;"Chiswick, London, England"
51.505436;-0.058729;"Wapping, London, England"
51.505436;-0.058729;"Wapping, London, England"
51.50853;-0.12574;"Black-Horse-Alley Nightingale-Lane, London, England"
51.50853;-0.12574;"Black-Horse-Alley Nightingale-Lane, London, England"
51.51125;-0.056924;"Shadwell, London, England"
51.51125;-0.056924;"Shadwell, London, England"
51.50853;-0.12574;"the Barracks in the Savoy, London, England"
51.50853;-0.12574;"the Barracks in the Savoy, London, England"
51.50853;-0.12574;"St. Dunstans in the West, London, England"
51.50853;-0.12574;"St. Mary Woolnoth, London, England"
51.50853;-0.12574;"St. Mary Woolnoth, London, England"
51.50853;-0.12574;"Post-Office-Yard, London, England"
51.50853;-0.12574;"Post-Office-Yard, London, England"
51.50853;-0.12574;"St. Dunstans in the West, London, England"
51.50853;-0.12574;"St. Dunstans in the West, London, England"
51.50853;-0.12574;"St. Andrew's Holbourn, London, England"
51.50853;-0.12574;"St. Andrew's Holbourn, London, England"
51.50853;-0.12574;"Precinct of St. Katherines, London, England"
51.50853;-0.12574;"Precinct of St. Katherines, London, England"
51.507908;-0.136573;"St. James's Westminster, London, England"
51.507908;-0.136573;"St. James's Westminster, London, England"
51.671824;-0.032728;"Cornhill, London, England"
51.505436;-0.058729;"Wapping, London, England"
51.505436;-0.058729;"Wapping, London, England"
51.50853;-0.12574;"New Rag-Fair, London, England"
51.50853;-0.12574;"New Rag-Fair, London, England"
51.50853;-0.12574;"S. Bartholomew's by the Exchange, London, England"
51.452171;-0.293293;"Bishopsgate, London, England"
51.50853;-0.12574;"S. Katharine's, London, England"
51.50853;-0.12574;"S. Katharine's, London, England"
51.50853;-0.12574;"Burr-street, London, England"
51.50853;-0.12574;"Burr-street, London, England"
51.50853;-0.12574;"S. Katharine's, London, England"
51.50853;-0.12574;"S. Katharine's, London, England"
51.50853;-0.12574;"S. Martin's in the Fields, London, England"
51.50853;-0.12574;"S. Martin's in the Fields, London, England"
51.50853;-0.12574;"Py'd Bull Alehouse in Vine street, London, England"
51.50853;-0.12574;"Py'd Bull Alehouse in Vine street, London, England"
51.517402;-0.046219;"Stepney, London, England"
51.517402;-0.046219;"Stepney, London, England"
51.514055;-0.073585;"Aldgate, London, England"
51.514055;-0.073585;"Aldgate, London, England"
51.51342;-0.0771;"Church-Row, by Aldgate, London, England"
51.51342;-0.0771;"Church-Row, by Aldgate, London, England"
51.517402;-0.046219;"Stepney, London, England"
51.517402;-0.046219;"Stepney, London, England"
51.51125;-0.056924;"Shadwell, London, England"
51.51125;-0.056924;"Shadwell, London, England"
51.514055;-0.073585;"Aldgate, London, England"
51.50853;-0.12574;"Hounds-Ditch, London, England"
51.499834;-0.126706;"St. Margaret Westminster, London, England"
51.499834;-0.126706;"St. Margaret Westminster, London, England"
51.523727;-0.105555;"Clerkenwell, London, England"
51.523727;-0.105555;"Clerkenwell, London, England"
51.526669;-0.079893;"Shoreditch, London, England"
51.526669;-0.079893;"Shoreditch, London, England"
51.505436;-0.058729;"Wapping, London, England"
51.505436;-0.058729;"Wapping, London, England"
51.50853;-0.12574;"Bull-Head-Tavern, in Fleet-street, London, England"
51.50853;-0.12574;"Bull-Head-Tavern, in Fleet-street, London, England"
51.51753;-0.12045;"Black-Swan-Inn in Holborn, London, England"
51.51753;-0.12045;"Black-Swan-Inn in Holborn, London, England"
51.398423;-0.298525;"3 Cranes, London, England"
51.398423;-0.298525;"3 Cranes, London, England"
51.50853;-0.12574;"Peacok in Pepper Alley, London, England"
51.50853;-0.12574;"Peacok in Pepper Alley, London, England"
51.514055;-0.073585;"Aldgate, London, England"
51.514055;-0.073585;"Aldgate, London, England"
51.512889;-0.122531;"Covent-Garden, London, England"
51.512889;-0.122531;"Covent-Garden, London, England"
51.671824;-0.032728;"Cornhill, London, England"
51.512889;-0.122531;"Covent Garden, London, England"
51.512889;-0.122531;"Covent Garden, London, England"
51.50853;-0.12574;"S Gile's in the Fields, London, England"
51.50853;-0.12574;"S Gile's in the Fields, London, England"
51.517402;-0.046219;"Stepney, London, England"
51.517402;-0.046219;"Stepney, London, England"
51.50853;-0.12574;"All Hallows Barkin, London, England"
51.50853;-0.12574;"S. Bride's, London, England"
51.50853;-0.12574;"S. Bride's, London, England"
51.50853;-0.12574;"Shoo-Lane, London, England"
51.50853;-0.12574;"Shoo-Lane, London, England"
51.5138;-0.10576;"St. Bride's, London, England"
51.50853;-0.12574;"the Ship called The Royal Exchange, London, England"
51.53622;-0.10304;"St. Mary at Islington, London, England"
51.52438;-0.11022;"St. James at Clerkenwell, London, England"
51.468356;-0.326311;"Isleworth, London, England"
51.508824;-0.126659;"St. Martin in the Fields, London, England"
51.53622;-0.10304;"St. Mary at Islington, London, England"
51.50853;-0.12574;"St. Gregory by St. Paul, London, England"
51.50853;-0.12574;"St. Paul's Church-yard, London, England"
51.508824;-0.126659;"St. Martin in the Fields, London, England"
51.508824;-0.126659;"St. Martin in the Fields, London, England"
51.51382;-0.06583;"St. Mary in Whitechapel, London, England"
51.51382;-0.06583;"St. Mary in Whitechapel, London, England"
51.50853;-0.12574;"St. Sepulchres, London, England"
51.538429;-0.099905;"Islington, London, England"
51.50853;-0.12574;"Christ's Church Parish, London, England"
51.50853;-0.12574;"St. Botolph without Aldersgate, London, England"
51.50853;-0.12574;"St. Ethelburga, London, England"
51.50853;-0.12574;"St. Peters Cbeap, London, England"
51.515306;-0.128446;"St. Giles in the Fields, London, England"
51.515306;-0.128446;"St. Giles in the Fields, London, England"
51.50853;-0.12574;"Alhallows, Lombard street, London, England"
51.5;-0.11667;"St. Anns Westminster, London, England"
51.5;-0.11667;"St. Anns Westminster, London, England"
51.517402;-0.046219;"Stepney, London, England"
51.517402;-0.046219;"Stepney, London, England"
51.50853;-0.12574;"St. Martins in the Fields, London, England"
51.50853;-0.12574;"St. Martins in the Fields, London, England"
51.507908;-0.136573;"St. James's Westminster, London, England"
51.507908;-0.136573;"St. James's Westminster, London, England"
51.51135;-0.05663;"St. Paul Shadwell, London, England"
51.51135;-0.05663;"St. Paul Shadwell, London, England"
51.587364;-0.120967;"Hornsey, London, England"
51.587364;-0.120967;"Hornsey, London, England"
51.50853;-0.12574;"St. Michael Crocked Lane, London, England"
51.50853;-0.12574;"St. Martin Outwich, London, England"
51.50853;-0.12574;"St. Martin Outwich, London, England"
51.50853;-0.12574;"St. Botolph Bshopsgate, London, England"
51.50853;-0.12574;"St. Botolph Bshopsgate, London, England"
51.499644;-0.134714;"Petty France, London, England"
51.499644;-0.134714;"Petty France, London, England"
51.50853;-0.12574;"St. Sepulchres, London, England"
51.50853;-0.12574;"St. Sepulchres, London, England"
51.50853;-0.12574;"St. Gregory, London, England"
51.50853;-0.12574;"St. Gregory, London, England"
51.5138;-0.10576;"St. Brides, London, England"
51.5138;-0.10576;"St. Brides, London, England"
51.474422;-0.206077;"Fulham, London, England"
51.474422;-0.206077;"Fulham, London, England"
51.5;-0.11667;"St. Margarets Westminster, London, England"
51.5;-0.11667;"St. Margarets Westminster, London, England"
51.50853;-0.12574;"St. Giles Cripplegate, London, England"
51.515306;-0.128446;"St. Giles in the Fields, London, England"
51.515306;-0.128446;"St. Giles in the Fields, London, England"
51.5175;-0.04292;"Stepney, London, England"
51.517402;-0.046219;"Stepney, London, England"
51.50853;-0.12574;"Lime house, London, England"
51.50853;-0.12574;"Lime house, London, England"
51.50853;-0.12574;"St. Gregory by St. Paul, London, England"
51.50853;-0.12574;"St. Gregory by St. Paul, London, England"
51.511544;-0.123707;"St. Paul's Church, London, England"
51.511544;-0.123707;"St. Paul's Church, London, England"
51.50853;-0.12574;"St. Margaret New Fish-street, London, England"
51.51635;-0.08144;"St. Botolph Bishopsgate, London, England"
51.51635;-0.08144;"St. Botolph Bishopsgate, London, England"
51.515306;-0.128446;"St. Giles in the Fields, London, England"
51.515306;-0.128446;"St. Giles in the Fields, London, England"
51.50853;-0.12574;"St. Andrew Holbourn, London, England"
51.50853;-0.12574;"St. Mildred Poultry, London, England"
51.50853;-0.12574;"St. Mildred Poultry, London, England"
51.50853;-0.12574;"St. Giles's Cripplegate, London, England"
51.50853;-0.12574;"St. Giles's Cripplegate, London, England"
51.50853;-0.12574;"Cripplegate Church, London, England"
51.50853;-0.12574;"Cripplegate Church, London, England"
51.515306;-0.128446;"St. Giles in the Fields, London, England"
51.515306;-0.128446;"St. Giles in the Fields, London, England"
51.50853;-0.12574;"St. Sepulchres, London, England"
51.50853;-0.12574;"Fleet lane, London, England"
51.51883;-0.09973;"St. Bartholomew the Great, London, England"
51.51883;-0.09973;"St. Bartholomew the Great, London, England"
51.50853;-0.12574;"South Mims, London, England"
51.50853;-0.12574;"South Mims, London, England"
51.515306;-0.128446;"St. Giles in the Fields, London, England"
51.515306;-0.128446;"St. Giles in the Fields, London, England"
51.507191;-0.132358;"St. James Westminster, London, England"
51.507191;-0.132358;"St. James Westminster, London, England"
51.50506;-0.05682;"St. John Wapping, London, England"
51.50506;-0.05682;"St. John Wapping, London, England"
51.508824;-0.126659;"St. Martin in the Fields, London, England"
51.505436;-0.058729;"Wapping, London, England"
51.366312;-0.179656;"Savoy, London, England"
51.587364;-0.120967;"Hornsey, London, England"
51.50853;-0.12574;"Whitechappel, London, England"
51.517402;-0.046219;"Stepney, London, England"
51.526858;-0.077162;"St. Leonard Shoreditch, London, England"
51.526858;-0.077162;"St. Leonard Shoreditch, London, England"
51.50853;-0.12574;"St. Bennet Fink, London, England"
51.50853;-0.12574;"St. Michael Crooked lane, London, England"
51.50853;-0.12574;"St. Andrew Holbourn, London, England"
51.50853;-0.12574;"St. Andrew Holbourn, London, England"
51.597325;-0.180559;"Finchley, London, England"
51.597325;-0.180559;"Finchley, London, England"
51.50853;-0.12574;"St. Giles Cripplegate, London, England"
51.50853;-0.12574;"St. Giles Cripplegate, London, England"
51.50853;-0.12574;"St. Giles Cripplegate, London, England"
51.507191;-0.132358;"St. James Westminster, London, England"
51.507191;-0.132358;"St. James Westminster, London, England"
51.50853;-0.12574;"White Chappel, London, England"
51.50853;-0.12574;"White Chappel, London, England"
51.517402;-0.046219;"Stepney, London, England"
51.517402;-0.046219;"Stepney, London, England"
51.526858;-0.077162;"St. Leonard Shoreditch, London, England"
51.526858;-0.077162;"St. Leonard Shoreditch, London, England"
51.517402;-0.046219;"Stepney, London, England"
51.517402;-0.046219;"Stepney, London, England"
51.50853;-0.12574;"St. Botolph Billinsgate, London, England"
51.50853;-0.12574;"a Ship at Fresh Wharf, London, England"
51.51422;-0.11017;"St. Dunstan in the West, London, England"
51.51422;-0.11017;"St. Dunstan in the West, London, England"
51.51342;-0.0771;"St. Botolph Aldgate, London, England"
51.51342;-0.0771;"St. Botolph Aldgate, London, England"
51.384239;-0.117067;"Canterbury, London, England"
51.384239;-0.117067;"Canterbury, London, England"
51.508824;-0.126659;"St. Martin in the Fields, London, England"
51.508824;-0.126659;"St. Martin in the Fields, London, England"
51.50853;-0.12574;"St. Sepulchres, London, England"
51.50853;-0.12574;"St. Sepulchres, London, England"
51.50853;-0.12574;"St. Katharine Creechurch, London, England"
51.50853;-0.12574;"St. Andrew Holbourn, London, England"
51.50853;-0.12574;"St. Andrew Holbourn, London, England"
51.50853;-0.12574;"Ickingham, London, England"
51.50853;-0.12574;"Ickingham, London, England"
51.5;-0.11667;"St. Ann Westminster, London, England"
51.5;-0.11667;"St. Ann Westminster, London, England"
51.50853;-0.12574;"St. Giles Cripplegate, London, England"
51.5;-0.11667;"St. Ann Westminster, London, England"
51.5;-0.11667;"St. Ann Westminster, London, England"
51.515306;-0.128446;"St. Giles in the Fields, London, England"
51.515306;-0.128446;"St. Giles in the Fields, London, England"
51.50853;-0.12574;"St. Andrews-street, London, England"
51.50853;-0.12574;"St. Andrews-street, London, England"
51.508824;-0.126659;"St. Martin in the Fields, London, England"
51.50853;-0.12574;"St. Margaret Westminister, London, England"
51.499834;-0.126706;"St. Margaret Westminster, London, England"
51.507191;-0.132358;"St. James Westminster, London, England"
51.50853;-0.12574;"St. Andrew Holbourn, London, England"
51.50968;-0.08262;"St. Dunstan in the East, London, England"
51.50853;-0.12574;"All Hallows Barkin, London, England"
51.50853;-0.12574;"Porter's Key, London, England"
51.50853;-0.12574;"St. Andrew Holbourn, London, England"
51.560437;0.226108;"St. Andrew's Church, London, England"
51.50853;-0.12574;"St:Giles Cripplegate, London, England"
51.50853;-0.12574;"St:Giles Cripplegate, London, England"
51.50853;-0.12574;"St. Sepulchres, London, England"
51.50853;-0.12574;"St. Sepulchres, London, England"
51.508824;-0.126659;"St. Martin in the Fields, London, England"
51.508824;-0.126659;"St. Martin in the Fields, London, England"
51.50853;-0.12574;"St. Clement Dames, London, England"
51.50853;-0.12574;"St. Clement Dames, London, England"
51.515306;-0.128446;"St. Giles in the Fields, London, England"
51.483484;-0.348995;"Thistleworth, London, England"
51.508824;-0.126659;"St. Martin in the Fields, London, England"
51.508824;-0.126659;"St. Martin in the Fields, London, England"
51.517402;-0.046219;"Stepney, London, England"
51.517402;-0.046219;"Stepney, London, England"
51.47769;-0.30517;"a Lighter in the River of Thames, London, England"
51.47769;-0.30517;"a Lighter in the River of Thames, London, England"
51.50853;-0.12574;"St. Martin's in the Fields, London, England"
51.50853;-0.12574;"St. Martin's in the Fields, London, England"
51.50853;-0.12574;"St. Giles's in the Fields, London, England"
51.50853;-0.12574;"St. Martins in the Fields, London, England"
51.510912;-0.128667;"Bear-street, London, England"
51.50853;-0.12574;"St. Mary Staining, London, England"
51.515306;-0.128446;"St. Giles in the Fields, London, England"
51.50853;-0.12574;"Stone-Cutters Alley, London, England"
51.513389;-0.136543;"Broad-Street, London, England"
51.51425;-0.08754;"Ship Tavern in Bartholomew-Lane, London, England"
51.50853;-0.12574;"White Chappel, London, England"
51.50853;-0.12574;"White Chappel, London, England"
51.50853;-0.12574;"Lemon-Street Goodmans-fields, London, England"
51.50853;-0.12574;"Lemon-Street Goodmans-fields, London, England"
51.514055;-0.073585;"Aldgate, London, England"
51.514055;-0.073585;"Aldgate, London, England"
51.517402;-0.046219;"Stepney, London, England"
51.50853;-0.12574;"St. Giles's in the Fields, London, England"
51.50853;-0.12574;"St. Giles's in the Fields, London, England"
51.50853;-0.12574;"Great Queen-Street, Lincoln's-Inn-Fields, London, England"
51.50853;-0.12574;"Great Queen-Street, Lincoln's-Inn-Fields, London, England"
51.513109;-0.113857;"St. Clement Danes, London, England"
51.51278;-0.12038;"Bennets Court, in Drury-Lane, London, England"
51.52438;-0.11022;"S. James Clerkenwell, London, England"
51.52438;-0.11022;"S. James Clerkenwell, London, England"
51.52438;-0.11022;"Peter-street. Clerkenwell, London, England"
51.52438;-0.11022;"Peter-street. Clerkenwell, London, England"
51.50853;-0.12574;"S. Mary Colechurch, London, England"
51.50853;-0.12574;"S. Giles's in the Fields, London, England"
51.50853;-0.12574;"S. Giles's in the Fields, London, England"
51.50853;-0.12574;"S. Giles's in the Fields, London, England"
51.50853;-0.12574;"S. Giles's in the Fields, London, England"
51.51278;-0.12038;"Holesford-Alley in Drury-Lane, London, England"
51.51278;-0.12038;"Holesford-Alley in Drury-Lane, London, England"
51.5;-0.11667;"S. James's Westminster, London, England"
51.5;-0.11667;"S. James's Westminster, London, England"
51.50853;-0.12574;"S. Sepulchre's, London, England"
51.487542;-0.16822;"Chelsea, London, England"
51.487542;-0.16822;"Chelsea, London, England"
51.514055;-0.073585;"Aldgate, London, England"
51.514055;-0.073585;"Aldgate, London, England"
51.50853;-0.12574;"S. Dunstan's in the West, London, England"
51.50853;-0.12574;"S. Dunstan's in the West, London, England"
51.514055;-0.073585;"Aldgate, London, England"
51.514055;-0.073585;"Aldgate, London, England"
51.50853;-0.12574;"Queenhithe, London, England"
51.50853;-0.12574;"Queenhithe, London, England"
51.50853;-0.12574;"S. Michael Bassishaw, London, England"
51.50853;-0.12574;"S. Michael Bassishaw, London, England"
51.50853;-0.12574;"Billingsgate, London, England"
51.50853;-0.12574;"Billingsgate, London, England"
51.50853;-0.12574;"Queenhithe, London, England"
51.514055;-0.073585;"Aldgate, London, England"
51.514055;-0.073585;"Aldgate, London, England"
51.517115;-0.120066;"Holborn, London, England"
51.517115;-0.120066;"Holborn, London, England"
51.51786;-0.10072;"St. Bartholomew the Less, London, England"
51.50853;-0.12574;"St. Paul's Shadwel, London, England"
51.50853;-0.12574;"St. Paul's Shadwel, London, England"
51.50853;-0.12574;"White-Chappel, London, England"
51.50853;-0.12574;"White-Chappel, London, England"
51.50853;-0.12574;"St. Dunstans in the West, London, England"
51.50853;-0.12574;"St. Dunstans in the West, London, England"
51.50853;-0.12574;"St. Mary le Bow in the Ward of Cheap, London, England"
51.50853;-0.12574;"St. Mary le Bow in the Ward of Cheap, London, England"
51.616683;-0.087295;"Cheapside, London, England"
51.616683;-0.087295;"Cheapside, London, England"
51.50853;-0.12574;"St. Bartholomew's Exchange, London, England"
51.50853;-0.12574;"St. Bartholomew's Exchange, London, England"
51.50853;-0.12574;"St. Bennet's Gracechurch, London, England"
51.50853;-0.12574;"St. Bennet's Gracechurch, London, England"
51.50853;-0.12574;"St. Sepulchres, London, England"
51.50853;-0.12574;"St. Sepulchres, London, England"
51.50853;-0.12574;"St. Christopher's Broadstreet, London, England"
51.50853;-0.12574;"St. Christopher's Broadstreet, London, England"
51.50853;-0.12574;"St. Sepulchres, London, England"
51.50853;-0.12574;"Wych-Street, London, England"
51.499834;-0.126706;"St. Margaret Westminster, London, England"
51.5;-0.11667;"Kings-Bridge, Westminster, London, England"
51.50853;-0.12574;"St. Sepulchres, London, England"
51.50853;-0.12574;"S Bride's, London, England"
51.50853;-0.12574;"S Bride's, London, England"
51.50853;-0.12574;"Bricklayers Arms by Fleet-ditch, London, England"
51.50853;-0.12574;"Bricklayers Arms by Fleet-ditch, London, England"
51.50853;-0.12574;"S. Bride's, London, England"
51.50853;-0.12574;"S. Bride's, London, England"
51.51348;-0.112117;"Fleet-street, London, England"
51.51348;-0.112117;"Fleet-street, London, England"
51.50853;-0.12574;"S. Martin's Ludgate, London, England"
51.50853;-0.12574;"S. Martin's Ludgate, London, England"
51.616683;-0.087295;"Cheapside, London, England"
51.505436;-0.058729;"Wapping, London, England"
51.505436;-0.058729;"Wapping, London, England"
51.50853;-0.12574;"S. Martin's in the Fields, London, England"
51.50853;-0.12574;"S. Martin's in the Fields, London, England"
51.517402;-0.046219;"Stepney, London, England"
51.517402;-0.046219;"Stepney, London, England"
51.50853;-0.12574;"S. Martin's in the Fields, London, England"
51.50853;-0.12574;"S. Martin's in the Fields, London, England"
51.651712;-0.083214;"Enfield, London, England"
51.651712;-0.083214;"Enfield, London, England"
51.514055;-0.073585;"Aldgate, London, England"
51.50853;-0.12574;"S. Martin's in the Fields, London, England"
51.50853;-0.12574;"S. Martin's in the Fields, London, England"
51.50853;-0.12574;"Whitechappel, London, England"
51.50853;-0.12574;"Whitechappel, London, England"
51.517402;-0.046219;"Stepney, London, England"
51.517402;-0.046219;"Stepney, London, England"
51.517402;-0.046219;"Stepney, London, England"
51.517402;-0.046219;"Stepney, London, England"
51.61494;-0.071783;"Silver-street, London, England"
51.50853;-0.12574;"Sugar-Loaf in Virginia-Street, London, England"
51.50853;-0.12574;"Sugar-Loaf in Virginia-Street, London, England"
51.506448;-0.10047;"Gravel-Lane, London, England"
51.506448;-0.10047;"Gravel-Lane, London, England"
51.50853;-0.12574;"Widegate-Alley in Bishopsgate-Street, London, England"
51.50853;-0.12574;"Widegate-Alley in Bishopsgate-Street, London, England"
51.50853;-0.12574;"Holbourn, London, England"
51.50853;-0.12574;"Holbourn, London, England"
51.50853;-0.12574;"Prince's Head in Tyburn-Road, London, England"
51.50853;-0.12574;"Prince's Head in Tyburn-Road, London, England"
51.59377;0.047808;"Hillington, London, England"
51.59377;0.047808;"Hillington, London, England"
51.5;-0.11667;"S. James's Westminster, London, England"
51.5;-0.11667;"S. James's Westminster, London, England"
51.517402;-0.046219;"Stepney, London, England"
51.514055;-0.073585;"Aldgate, London, England"
51.50853;-0.12574;"St. Martin's Ludgate, London, England"
51.50853;-0.12574;"Ludgate, London, England"
51.50853;-0.12574;"St. Sepulchres, London, England"
51.51342;-0.0771;"St. Buttolph Aldgate, London, England"
51.574432;-0.152684;"Highgate, London, England"
51.574432;-0.152684;"Highgate, London, England"
51.526858;-0.077162;"St. Leonard Shoreditch, London, England"
51.526858;-0.077162;"St. Leonard Shoreditch, London, England"
51.510384;-0.073413;"Minories, London, England"
51.510384;-0.073413;"Minories, London, England"
51.50853;-0.12574;"Eling, London, England"
51.50853;-0.12574;"Eling, London, England"
51.51635;-0.08144;"St. Buttolph's Bishopsgate, London, England"
51.509403;-0.052039;"St. Paul's Shadwell, London, England"
51.526858;-0.077162;"St. Leonard Shoreditch, London, England"
51.50853;-0.12574;"St.Magnus the Martyr, London, England"
51.50853;-0.12574;"Swan-Tavern, London, England"
51.52609;-0.01665;"St. Mary le Bow, London, England"
51.52609;-0.01665;"St. Mary le Bow, London, England"
51.51377;-0.09383;"Bow Churchyard, London, England"
51.51377;-0.09383;"Bow Churchyard, London, England"
51.52438;-0.11022;"St. James Clerkenwell, London, England"
51.52438;-0.11022;"St. James Clerkenwell, London, England"
51.50853;-0.12574;"St. Martin's in the Fields, London, England"
51.50853;-0.12574;"St. Martin's in the Fields, London, England"
51.513109;-0.113857;"St. Clement Danes, London, England"
51.513109;-0.113857;"St. Clement Danes, London, England"
51.507265;-0.127833;"St. Bartholomew, near the Exchange, London, England"
51.51753;-0.12045;"St. Andrews Holborn, London, England"
51.50853;-0.12574;"St. Magnus the Martyr, London, England"
51.50853;-0.12574;"St. Martins Ludgate, London, England"
51.50853;-0.12574;"St. Ann's Aldersgate, London, England"
51.50853;-0.12574;"St. Sepulchres, London, England"
51.50853;-0.12574;"Fleet-Lane, London, England"
51.526858;-0.077162;"St. Leonard Shoreditch, London, England"
51.499834;-0.126706;"St. Margaret Westminster, London, England"
51.651712;-0.083214;"Enfield, London, England"
51.517402;-0.046219;"Stepney, London, England"
51.517402;-0.046219;"Stepney, London, England"
51.50853;-0.12574;"St. Anne Aldersgate, London, England"
51.50853;-0.12574;"St. Anne Aldersgate, London, England"
51.50853;-0.12574;"St. Giles Cripplegate, London, England"
51.50853;-0.12574;"St. Giles Cripplegate, London, England"
51.51382;-0.06583;"St. Mary Whitechapel, London, England"
51.50853;-0.12574;"St. Martin's in the Fields, London, England"
51.5138;-0.10576;"St. Brides, London, England"
51.51786;-0.10072;"St. Bartholomew the Less, London, England"
51.51137;-0.08694;"St. Clement Eastcheap, London, England"
51.5138;-0.10576;"St. Brides, London, England"
51.50853;-0.12574;"St. Vedas, alias Foster-Lane, London, England"
51.50853;-0.12574;"St. Vedas, alias Foster-Lane, London, England"
51.50853;-0.12574;"St. Stephen Colemanstreet, London, England"
51.50853;-0.12574;"St. Stephen Colemanstreet, London, England"
51.50853;-0.12574;"St. Mary Woolchurch, London, England"
51.50853;-0.12574;"St. Mary Woolchurch, London, England"
51.587364;-0.120967;"Hornsey, London, England"
51.587364;-0.120967;"Hornsey, London, England"
51.515306;-0.128446;"St. Giles in the Fields, London, England"
51.515306;-0.128446;"St. Giles in the Fields, London, England"
51.515306;-0.128446;"St. Giles in the Fields, London, England"
51.515306;-0.128446;"St. Giles in the Fields, London, England"
51.50853;-0.12574;"St. Margaret's Lothbury, London, England"
51.526858;-0.077162;"St. Leonard Shoreditch, London, England"
51.526858;-0.077162;"St. Leonard Shoreditch, London, England"
51.50853;-0.12574;"Low Layton, London, England"
51.50853;-0.12574;"Low Layton, London, England"
51.516837;-0.041658;"St. Dunstan's Stepney, London, England"
51.516837;-0.041658;"St. Dunstan's Stepney, London, England"
51.508824;-0.126659;"St. Martin in the Fields, London, England"
51.508824;-0.126659;"St. Martin in the Fields, London, England"
51.517402;-0.046219;"Stepney, London, England"
51.517402;-0.046219;"Stepney, London, England"
51.50853;-0.12574;"St. Martin Orgars, London, England"
51.508972;-0.194997;"Old Swan, London, England"
51.517402;-0.046219;"Stepney, London, England"
51.517402;-0.046219;"Stepney, London, England"
51.50853;-0.12574;"St. Martin's in the Fields, London, England"
51.50853;-0.12574;"St. Martin's in the Fields, London, England"
51.50853;-0.12574;"St. Giles's Cripplegate, London, England"
51.50853;-0.12574;"St. Giles's Cripplegate, London, England"
51.5138;-0.10576;"St. Brides, London, England"
51.5138;-0.10576;"St. Brides, London, England"
51.51753;-0.12045;"St. Andrew's Holborn, London, England"
51.51753;-0.12045;"St. Andrew's Holborn, London, England"
51.50853;-0.12574;"St. Martin's in the Fields, London, England"
51.508824;-0.126659;"St. Martin in the Fields, London, England"
51.50853;-0.12574;"St. Andrews Holbourn, London, England"
51.50853;-0.12574;"St. Ann's Black Friars, London, England"
51.50506;-0.05682;"St. John Wapping, London, England"
51.50506;-0.05682;"St. John Wapping, London, England"
51.50853;-0.12574;"St. Martins in the Fields, London, England"
51.50853;-0.12574;"St. Martins in the Fields, London, England"
51.50853;-0.12574;"Alhallows in the Wall, London, England"
51.50853;-0.12574;"Alhallows in the Wall, London, England"
51.50853;-0.12574;"St. Dunstans in the West, London, England"
51.50853;-0.12574;"St. Dunstans in the West, London, England"
51.50853;-0.12574;"Queen-Hithe, London, England"
51.50853;-0.12574;"Queen-Hithe, London, England"
51.5138;-0.10576;"St. Bride's, London, England"
51.50853;-0.12574;"St. Giles's in the Fields, London, England"
51.50853;-0.12574;"St. Giles's in the Fields, London, England"
51.52509;-0.07695;"St. Leonard's Shoreditch, London, England"
51.52509;-0.07695;"St. Leonard's Shoreditch, London, England"
51.50853;-0.12574;"St. Lawrence Old Jury, London, England"
51.50853;-0.12574;"St. Clement's Danes, London, England"
51.50853;-0.12574;"St. Clement's Danes, London, England"
51.50853;-0.12574;"Fountain-Tavern in the Strand, London, England"
51.50853;-0.12574;"Fountain-Tavern in the Strand, London, England"
51.50853;-0.12574;"St. Katherine's, London, England"
51.50853;-0.12574;"St. Katherine's, London, England"
51.50853;-0.12574;"Pancrass, London, England"
51.50853;-0.12574;"Pancrass, London, England"
51.50853;-0.12574;"St. Giles's Cripplegate, London, England"
51.50853;-0.12574;"St. Giles's Cripplegate, London, England"
51.50853;-0.12574;"St. Christopher's Broadstreet, London, England"
51.51336;-0.08597;"St. Michael's Cornhill, London, England"
51.51336;-0.08597;"Birchin-Lane, in Cornhill, London, England"
51.671824;-0.032728;"Cornhill, London, England"
51.671824;-0.032728;"Cornhill, London, England"
51.513109;-0.113857;"St. Clement Danes, London, England"
51.513109;-0.113857;"St. Clement Danes, London, England"
51.50853;-0.12574;"Houns-ditch, London, England"
51.50853;-0.12574;"Houns-ditch, London, England"
51.52438;-0.11022;"St. James Clerkenwell, London, England"
51.52438;-0.11022;"St. James Clerkenwell, London, England"
51.525628;-0.087542;"Old-Street, London, England"
51.525628;-0.087542;"Old-Street, London, England"
51.492314;-0.263818;"Chiswick, London, England"
51.492314;-0.263818;"Chiswick, London, England"
51.517402;-0.046219;"Stepney, London, England"
51.517402;-0.046219;"Stepney, London, England"
51.50506;-0.05682;"Kings-Street, Wapping, London, England"
51.50506;-0.05682;"Kings-Street, Wapping, London, England"
51.52332;-0.03888;"S. Dunstan's in the East, London, England"
51.50853;-0.12574;"Custom-House Key, London, England"
51.51753;-0.12045;"S. Andrew's Holborn, London, England"
51.51753;-0.12045;"S. Andrew's Holborn, London, England"
51.520501;-0.109557;"Leather-Lane, London, England"
51.520501;-0.109557;"Leather-Lane, London, England"
51.51278;-0.12038;"Playhouse in Drury-Lane, London, England"
51.51278;-0.12038;"Playhouse in Drury-Lane, London, England"
51.50853;-0.12574;"S. Giles's in the Fields, London, England"
51.50853;-0.12574;"S. Giles's in the Fields, London, England"
51.51753;-0.12045;"S. Andrew's, Holborn, London, England"
51.51753;-0.12045;"S. Andrew's, Holborn, London, England"
51.51753;-0.12045;"S. Andrew's, Holborn, London, England"
51.51753;-0.12045;"Cross-Keys Tavern in Holborn, London, England"
51.50853;-0.12574;"S. Magnus Martyr, London, England"
51.50853;-0.12574;"S. Magnus Martyr, London, England"
51.50853;-0.12574;"Globe Alehouse on Fishstreet-Hill, London, England"
51.50853;-0.12574;"Globe Alehouse on Fishstreet-Hill, London, England"
51.50853;-0.12574;"S.Antholin's, London, England"
51.50853;-0.12574;"S.Antholin's, London, England"
51.50853;-0.12574;"St. Martin's in the Fields, London, England"
51.50853;-0.12574;"St. Martin's in the Fields, London, England"
51.532226;0.14536;"St. Martin's Church, London, England"
51.532226;0.14536;"St. Martin's Church, London, England"
51.50853;-0.12574;"St. Sepulchres, London, England"
51.50853;-0.12574;"St. Sepulchres, London, England"
51.526858;-0.077162;"St. Leonard Shoreditch, London, England"
51.526858;-0.077162;"St. Leonard Shoreditch, London, England"
51.51786;-0.10072;"St. Bartholomew the Less, London, England"
51.50853;-0.12574;"St. Magnus the Martyr, London, England"
51.50853;-0.12574;"St. Magnus the Martyr, London, England"
51.515306;-0.128446;"St. Giles in the Fields, London, England"
51.515306;-0.128446;"St. Giles in the Fields, London, England"
51.517402;-0.046219;"Stepney, London, England"
51.517402;-0.046219;"Stepney, London, England"
51.602776;-0.315504;"Weston, London, England"
51.602776;-0.315504;"Weston, London, England"
51.517402;-0.046219;"Stepney, London, England"
51.517402;-0.046219;"Stepney, London, England"
51.51753;-0.12045;"St. Andrew's Holborn, London, England"
51.50853;-0.12574;"St. Martins in the Fields, London, England"
51.50853;-0.12574;"St. Martin's in the Fields, London, England"
51.5175;-0.04292;"Parish of Stepney, London, England"
51.517402;-0.046219;"Stepney, London, England"
51.526858;-0.077162;"St. Leonard Shoreditch, London, England"
51.53544;-0.08841;"Red Lyon, at Hoxton, London, England"
51.50853;-0.12574;"St. Sepulchres, London, England"
51.50853;-0.12574;"St. Sepulchres, London, England"
51.50853;-0.12574;"St. Michael's Wood-street, London, England"
51.50853;-0.12574;"St. Michael's Wood-street, London, England"
51.514196;-0.094799;"Three Tun-Tavern, at Wood street, London, England"
51.50853;-0.12574;"Three Tun-Tavern, at Wood street, London, England"
51.51342;-0.0771;"St. Buttolphs Aldgate, London, England"
51.50853;-0.12574;"Bear key, London, England"
51.50853;-0.12574;"Bear key, London, England"
51.507908;-0.136573;"St. James's Westminster, London, England"
51.507908;-0.136573;"St. James's Westminster, London, England"
51.50853;-0.12574;"St. Andrew Holbourn, London, England"
51.50853;-0.12574;"St. Andrew Holbourn, London, England"
51.514055;-0.073585;"Aldgate, London, England"
51.514055;-0.073585;"Aldgate, London, England"
51.50853;-0.12574;"Duval's Wharf, London, England"
51.50853;-0.12574;"Duval's Wharf, London, England"
51.50506;-0.05682;"St. John Wapping, London, England"
51.50506;-0.05682;"St. John Wapping, London, England"
51.50853;-0.12574;"Three Pigeons at Execution Dock, London, England"
51.50853;-0.12574;"Three Pigeons at Execution Dock, London, England"
51.51424;-0.12471;"St. Paul Covent Garden, London, England"
51.50853;-0.12574;"St. Martins in the Fields, London, England"
51.50853;-0.12574;"St. Martins in the Fields, London, England"
51.508834;-0.125093;"Strand, London, England"
51.50853;-0.12574;"St. Lawrence Jury, London, England"
51.50853;-0.12574;"Crown Tavern in Kingstreet, London, England"
51.51635;-0.08144;"St.Ethelburg, in the Ward of Bishopsgate, London, England"
51.50853;-0.12574;"St. Dunstan's in the West, London, England"
51.50853;-0.12574;"White Friars Gate Way, London, England"
51.50853;-0.12574;"St. Mildred Poultry, London, England"
51.515306;-0.128446;"St. Giles in the Fields, London, England"
51.515306;-0.128446;"St. Giles in the Fields, London, England"
51.51753;-0.12045;"St. Andrew's Holborn, London, England"
51.51753;-0.12045;"St. Andrew's Holborn, London, England"
51.545015;-0.48123;"Cross Street, London, England"
51.545015;-0.48123;"Cross Street, London, England"
51.51422;-0.11017;"St. Dunstan in the West, London, England"
51.51422;-0.11017;"St. Dunstan in the West, London, England"
51.51718;-0.10695;"St. Andrew Holborn, London, England"
51.51718;-0.10695;"St. Andrew Holborn, London, England"
51.50853;-0.12574;"St. Mary White-chappel, London, England"
51.50853;-0.12574;"St. Mary White-chappel, London, England"
51.509403;-0.052039;"St. Paul's Shadwell, London, England"
51.509403;-0.052039;"St. Paul's Shadwell, London, England"
51.50853;-0.12574;"St. Mary Woolnoth, London, England"
51.671824;-0.032728;"Cornhill, London, England"
51.5;-0.11667;"St. Ann's Westminster, London, England"
51.5;-0.11667;"St. Ann's Westminster, London, England"
51.50853;-0.12574;"St. Dunstan's in the West, London, England"
51.50853;-0.12574;"St. Dunstan's in the West, London, England"
51.50853;-0.12574;"St. Sepulchres, London, England"
51.50853;-0.12574;"St. Sepulchres, London, England"
51.50853;-0.12574;"the Ram in Smithfield, London, England"
51.50853;-0.12574;"the Ram in Smithfield, London, England"
51.50853;-0.12574;"St. Giles's Cripplegate, London, England"
51.50853;-0.12574;"St. Giles's Cripplegate, London, England"
51.50853;-0.12574;"St. Bennet's Paul's Wharf, London, England"
51.50853;-0.12574;"St. Bennet's Paul's Wharf, London, England"
51.40606;0.01519;"St. Leonard Bromley, London, England"
51.50853;-0.12574;"St. Pancras Soaper Lane, London, England"
51.51696;-0.09721;"St. Botolph's Aldersgate, London, England"
51.51696;-0.09721;"St. Botolph's Aldersgate, London, England"
51.51859;-0.09705;"Castle and Faulcon in Aldersgate Street, London, England"
51.51859;-0.09705;"Castle and Faulcon in Aldersgate Street, London, England"
51.50506;-0.05682;"St. John Wapping, London, England"
51.50506;-0.05682;"St. John Wapping, London, England"
51.50853;-0.12574;"White Chappel, London, England"
51.50853;-0.12574;"White Chappel, London, England"
51.50853;-0.12574;"St. Giles's Cripplegate, London, England"
51.50853;-0.12574;"St. Giles's Cripplegate, London, England"
51.50853;-0.12574;"St. Peter le Poor, London, England"
51.50853;-0.12574;"St. Peter le Poor, London, England"
51.508824;-0.126659;"St. Martin in the Fields, London, England"
51.505436;-0.058729;"Wapping, London, England"
51.50853;-0.12574;"St. Magnus the Martyr, London, England"
51.50853;-0.12574;"Dowgate, London, England"
51.50853;-0.12574;"St. Giles's in the Fields, London, England"
51.517115;-0.120066;"Holborn, London, England"
51.50506;-0.05682;"St. John Wapping, London, England"
51.50853;-0.12574;"St. Michael Crooked Lane, London, England"
51.51422;-0.11017;"St. Dunstan in the West, London, England"
51.51422;-0.11017;"St. Dunstan in the West, London, England"
51.513109;-0.113857;"St. Clement Danes, London, England"
51.513109;-0.113857;"St. Clement Danes, London, England"
51.51718;-0.10695;"St. Andrew Holborn, London, England"
51.51718;-0.10695;"St. Andrew Holborn, London, England"
51.52541;-0.16806;"St. Mary le Bone, London, England"
51.52541;-0.16806;"St. Mary le Bone, London, England"
51.50853;-0.12574;"St. Mildred Poultry, London, England"
51.55567;-0.213815;"Poultry, London, England"
51.52438;-0.11022;"St. James Clerkenwell, London, England"
51.52438;-0.11022;"St. James Clerkenwell, London, England"
51.50853;-0.12574;"St. James Duke's Place, London, England"
51.50853;-0.12574;"St. James Duke's Place, London, England"
51.50853;-0.12574;"St. Gregory, London, England"
51.51635;-0.08144;"St. Buttolph's Bishopsgate, London, England"
51.51635;-0.08144;"St. Buttolph's Bishopsgate, London, England"
51.51718;-0.10695;"St. Andrew Holborn, London, England"
51.51718;-0.10695;"St. Andrew Holborn, London, England"
51.52541;-0.16806;"St. Mary le Bone, London, England"
51.52541;-0.16806;"St. Mary le Bone, London, England"
51.497321;-0.137149;"Westminster, London, England"
51.497321;-0.137149;"Westminster, London, England"
51.50853;-0.12574;"St. Giles's Cripplegate, London, England"
51.5;-0.11667;"St. Margaret's Westminster, London, England"
51.5;-0.11667;"St. Margaret's Westminster, London, England"
51.517402;-0.046219;"Stepney, London, England"
51.517402;-0.046219;"Stepney, London, England"
51.507191;-0.132358;"St. James Westminster, London, England"
51.507191;-0.132358;"St. James Westminster, London, England"
51.51718;-0.10695;"St. Andrew Holborn, London, England"
51.51718;-0.10695;"St. Andrew Holborn, London, England"
51.50853;-0.12574;"St. Sepulchres, London, England"
51.50853;-0.12574;"St. Sepulchres, London, England"
51.507191;-0.132358;"St. James Westminster, London, England"
51.507191;-0.132358;"St. James Westminster, London, England"
51.514641;-0.120654;"Wild Street, London, England"
51.514641;-0.120654;"Wild Street, London, England"
51.50853;-0.12574;"St. Martins in the Fields, London, England"
51.50853;-0.12574;"St. Martins in the Fields, London, England"
51.50853;-0.12574;"Precinct of Norton Falgate, London, England"
51.50853;-0.12574;"Precinct of Norton Falgate, London, England"
51.50853;-0.12574;"Spittle-Square, London, England"
51.50853;-0.12574;"Spittle-Square, London, England"
51.518863;-0.218106;"St. Helen's, London, England"
51.517402;-0.046219;"Stepney, London, England"
51.517402;-0.046219;"Stepney, London, England"
51.50853;-0.12574;"St. Bennet's Paul's Wharf, London, England"
51.50853;-0.12574;"St. Bennet's Paul's Wharf, London, England"
51.515306;-0.128446;"St. Giles in the Fields, London, England"
51.515306;-0.128446;"St. Giles in the Fields, London, England"
51.517402;-0.046219;"Stepney, London, England"
51.517402;-0.046219;"Stepney, London, England"
51.517402;-0.046219;"Stepney, London, England"
51.517402;-0.046219;"Stepney, London, England"
51.50853;-0.12574;"St. Giles Cripplegate, London, England"
51.50853;-0.12574;"St. Giles Cripplegate, London, England"
51.51635;-0.08144;"St. Botolph Bishopsgate, London, England"
51.51635;-0.08144;"St. Botolph Bishopsgate, London, England"
51.50853;-0.12574;"St. Ethelberg, London, England"
51.50853;-0.12574;"St. Andrew Holbourn, London, England"
51.50853;-0.12574;"St. Martins in the Field, London, England"
51.50853;-0.12574;"St. Martins in the Field, London, England"
51.50853;-0.12574;"St. Catherine Creed Church, London, England"
51.50853;-0.12574;"St.Bernard Pauls Wharf, London, England"
51.50853;-0.12574;"St. Sepulchre, London, England"
51.50853;-0.12574;"St. Paul Covent-Gardens, London, England"
51.50853;-0.12574;"St. Olave Hart-Street, London, England"
51.50853;-0.12574;"Black Fryers, London, England"
51.508824;-0.126659;"St. Martin in the Fields, London, England"
51.517402;-0.046219;"Stepney, London, England"
51.517402;-0.046219;"Stepney, London, England"
51.526858;-0.077162;"St. Leonard Shoreditch, London, England"
51.526858;-0.077162;"St. Leonard Shoreditch, London, England"
51.515306;-0.128446;"St. Giles in the Fields, London, England"
51.515306;-0.128446;"St. Giles in the Fields, London, England"
51.50853;-0.12574;"St. Gregory, London, England"
51.50853;-0.12574;"St. Martin's in the Fields, London, England"
51.50853;-0.12574;"St. Martin's in the Fields, London, England"
51.50853;-0.12574;"St. Gregory, London, England"
51.50853;-0.12574;"St. Margaret New Fish-street, London, England"
51.51635;-0.08144;"St. Buttolph Bishopsgate, London, England"
51.4672;-0.295887;"Christchurch, London, England"
51.4672;-0.295887;"Christchurch, London, England"
51.52332;-0.03888;"St. Dunstan's in the East, London, England"
51.52332;-0.03888;"St. Dunstan's in the East, London, England"
51.5138;-0.10576;"St. Brides, London, England"
51.50853;-0.12574;"Allhallow's in the Wall, London, England"
51.50853;-0.12574;"St. Michael's Queen-Hith, London, England"
51.50853;-0.12574;"Bull Wharf, London, England"
51.507191;-0.132358;"St. James Westminster, London, England"
51.513109;-0.113857;"St. Clement Danes, London, England"
51.51336;-0.08597;"St. Peter Cornhill, London, England"
51.50853;-0.12574;"St. Katharine Coleman, London, England"
51.50853;-0.12574;"St. Katharines, London, England"
51.50853;-0.12574;"St. Magnus the Martyr, London, England"
51.507851;-0.087637;"London Bridge, London, England"
51.50853;-0.12574;"St. Giles Cripplegate, London, England"
51.515306;-0.128446;"St. Giles in the Fields, London, England"
51.50853;-0.12574;"St. James's Westminister, London, England"
51.507191;-0.132358;"St. James, Westminster, London, England"
51.50853;-0.12574;"St. Mary Whitechappel, London, England"
51.50506;-0.05682;"St. John Wapping, London, England"
51.517402;-0.046219;"Stepney, London, England"
51.51342;-0.0771;"St. Buttolp without Aldgate, London, England"
51.51135;-0.05663;"St. Paul Shadwell, London, England"
51.51135;-0.05663;"St. Paul Shadwell, London, England"
51.499834;-0.126706;"St. Margaret Westminster, London, England"
51.499834;-0.126706;"St. Margaret Westminster, London, England"
51.620339;-0.065979;"Edmonton, London, England"
51.620339;-0.065979;"Edmonton, London, England"
51.5175;-0.04292;"St. Dunstan Stepney, London, England"
51.5175;-0.04292;"St. Dunstan Stepney, London, England"
51.50853;-0.12574;"Precinct of the Savoy, London, England"
51.50853;-0.12574;"Precinct of the Savoy, London, England"
51.499834;-0.126706;"St. Margaret Westminster, London, England"
51.499834;-0.126706;"St. Margaret Westminster, London, England"
51.515306;-0.128446;"St. Giles in the Fields, London, England"
51.515306;-0.128446;"St. Giles in the Fields, London, England"
51.51422;-0.11017;"St. Dunstan in the West, London, England"
51.526858;-0.077162;"St. Leonard Shoreditch, London, England"
51.53622;-0.10304;"St. Mary Islington, London, England"
51.526858;-0.077162;"St. Leonard Shoreditch, London, England"
51.50853;-0.12574;"St. Andrew Holbourn, London, England"
51.518623;-0.062081;"Whitechapel, London, England"
51.50853;-0.12574;"Whitechapel Church, London, England"
51.538429;-0.099905;"Islington, London, England"
51.51342;-0.0771;"St. Botolph's Aldgate, London, England"
51.50853;-0.12574;"St. Sepulchres, London, England"
51.513109;-0.113857;"St. Clement Danes, London, England"
51.50853;-0.12574;"St. Bennet Pauls Wharf, London, England"
51.515306;-0.128446;"St. Giles in the Fields, London, England"
51.50853;-0.12574;"St. Magnus the Martyr, London, England"
51.507851;-0.087637;"London Bridge, London, England"
51.507191;-0.132358;"St. James Westminster, London, England"
51.515306;-0.128446;"St. Giles in the Fields, London, England"
51.50853;-0.12574;"St. Andrew Holbourn, London, England"
51.59377;0.047808;"Hillington, London, England"
51.59377;0.047808;"Hillington, London, England"
51.507191;-0.132358;"St. James Westminster, London, England"
51.5138;-0.10576;"St. Brides, London, England"
51.50853;-0.12574;"St. Mary Cole-Church, London, England"
51.50853;-0.12574;"St. Katherine Creed Church, London, England"
51.50853;-0.12574;"St. Katherine Creed Church, London, England"
51.50853;-0.12574;"Pig Hill, London, England"
51.50853;-0.12574;"Pig Hill, London, England"
51.499834;-0.126706;"St. Margaret Westminster, London, England"
51.51601;-0.08983;"St. Stephen Coleman-street, London, England"
51.508824;-0.126659;"St. Martin in the Fields, London, England"
51.508824;-0.126659;"St. Martin in the Fields, London, England"
51.508824;-0.126659;"St. Martin in the Fields, London, England"
51.508824;-0.126659;"St. Martin in the Fields, London, England"
51.507908;-0.136573;"St. James's Westminster, London, England"
51.507908;-0.136573;"St. James's Westminster, London, England"
51.50853;-0.12574;"St. Sepulchres, London, England"
51.50853;-0.12574;"St. Sepulchres, London, England"
51.50853;-0.12574;"St. Andrew Holbourn, London, England"
51.50853;-0.12574;"St. Andrew Holbourn, London, England"
51.50853;-0.12574;"Precinct of St. Katherine, London, England"
51.50853;-0.12574;"St. Martins in the Fields, London, England"
51.547822;-0.054539;"St. John Hackney, London, England"
51.50853;-0.12574;"St. Olave Hart-Street, London, England"
51.50853;-0.12574;"Mark Lane, London, England"
51.508824;-0.126659;"St. Martin in the Fields, London, England"
51.50853;-0.12574;"St. Giles Cripplegate, London, England"
51.50853;-0.12574;"St. Ann Aldersgate, London, England"
51.50853;-0.12574;"St. Ann Aldersgate, London, England"
51.51336;-0.08597;"St. Michael's Cornhill, London, England"
51.51336;-0.08597;"St. Michael's Cornhill, London, England"
51.50853;-0.12574;"Grace-Church Street, London, England"
51.50853;-0.12574;"Grace-Church Street, London, England"
51.547822;-0.054539;"St. John Hackney, London, England"
51.547822;-0.054539;"St. John Hackney, London, England"
51.517402;-0.046219;"Stepney, London, England"
51.517402;-0.046219;"Stepney, London, England"
51.50853;-0.12574;"St. Sepulchres, London, England"
51.50853;-0.12574;"St. Sepulchres, London, England"
51.515306;-0.128446;"St. Giles in the Fields, London, England"
51.515306;-0.128446;"St. Giles in the Fields, London, England"
51.50853;-0.12574;"St. Giles Cripplegate, London, England"
51.515306;-0.128446;"St. Giles in the Fields, London, England"
51.515306;-0.128446;"St. Giles in the Fields, London, England"
51.507191;-0.132358;"St. James Westminster, London, England"
51.507191;-0.132358;"St. James Westminster, London, England"
51.526858;-0.077162;"St. Leonard Shoreditch, London, England"
51.527223;-0.090196;"Moorfields, London, England"
51.515306;-0.128446;"St. Giles in the Fields, London, England"
51.515306;-0.128446;"St. Giles in the Fields, London, England"
51.508824;-0.126659;"St. Martin in the Fields, London, England"
51.508824;-0.126659;"St. Martin in the Fields, London, England"
51.508824;-0.126659;"St. Martin in the Fields, London, England"
51.508824;-0.126659;"St. Martin in the Fields, London, England"
51.499834;-0.126706;"St. Margaret Westminster, London, England"
51.50853;-0.12574;"Padington, London, England"
51.50853;-0.12574;"Padington, London, England"
51.512713;-0.202682;"St. Peter's, London, England"
51.508824;-0.126659;"St. Martin in the Fields, London, England"
51.508824;-0.126659;"St. Martin in the Fields, London, England"
51.547822;-0.054539;"St. John Hackney, London, England"
51.547822;-0.054539;"St. John Hackney, London, England"
51.508824;-0.126659;"St. Martin in the Fields, London, England"
51.508824;-0.126659;"St. Martin in the Fields, London, England"
51.517402;-0.046219;"Stepney, London, England"
51.517402;-0.046219;"Stepney, London, England"
51.50968;-0.08262;"St. Dunstan in the East, London, England"
51.50853;-0.12574;"Elin, London, England"
51.50853;-0.12574;"Elin, London, England"
51.50853;-0.12574;"St. Paul Shadwel, London, England"
51.50853;-0.12574;"St. Paul Shadwel, London, England"
51.546146;-0.156173;"Hamstead, London, England"
51.546146;-0.156173;"Hamstead, London, England"
51.507191;-0.132358;"St. James Westminster, London, England"
51.507191;-0.132358;"St. James Westminster, London, England"
51.50853;-0.12574;"Ingerstone Fair, London, England"
51.651712;-0.083214;"Enfield, London, England"
51.50853;-0.12574;"St. Sepulchre, London, England"
51.526858;-0.077162;"St. Leonard Shoreditch, London, England"
51.51635;-0.08144;"St. Buttolph Bishopsgate, London, England"
51.51635;-0.08144;"St. Buttolph Bishopsgate, London, England"
51.5138;-0.10576;"St. Brides, London, England"
51.50853;-0.12574;"Fleetstreet, London, England"
51.5138;-0.10576;"St. Brides, London, England"
51.51718;-0.10695;"St. Andrew Holborn, London, England"
51.51718;-0.10695;"St. Andrew Holborn, London, England"
51.5;-0.11667;"St. Margaret's Westminster, London, England"
51.5;-0.11667;"St. Margaret's Westminster, London, England"
51.50853;-0.12574;"St. Martin's in the Fields, London, England"
51.50853;-0.12574;"St. Martin's in the Fields, London, England"
51.51336;-0.08597;"St. Peter Cornhill, London, England"
51.50853;-0.12574;"Peter's Alley in Cornhil, London, England"
51.518623;-0.062081;"Whitechapel, London, England"
51.518623;-0.062081;"Whitechapel, London, England"
51.5;-0.11667;"St. Ann Westminster, London, England"
51.5;-0.11667;"St. Ann Westminster, London, England"
51.526858;-0.077162;"St. Leonard Shoreditch, London, England"
51.526858;-0.077162;"St. Leonard Shoreditch, London, England"
51.532393;-0.086078;"Hoxton, London, England"
51.532393;-0.086078;"Hoxton, London, England"
51.51635;-0.08144;"St. Buttolph's Bishopsgate, London, England"
51.51635;-0.08144;"St. Buttolph's Bishopsgate, London, England"
51.50853;-0.12574;"St. Faith, London, England"
51.50853;-0.12574;"St. Faith, London, England"
51.50853;-0.12574;"St. Mary Hill, London, England"
51.50853;-0.12574;"St. Mary Hill, London, England"
51.428314;-0.011219;"St. John Baptist, London, England"
51.428314;-0.011219;"St. John Baptist, London, England"
51.508824;-0.126659;"St. Martin in the Fields, London, England"
51.517402;-0.046219;"Stepney, London, England"
51.50853;-0.12574;"St. Magnus the Martyr, London, England"
51.50853;-0.12574;"St. James Dukes Place, London, England"
51.50853;-0.12574;"St. Magnus the Martyr, London, England"
51.50853;-0.12574;"St. Magnus the Martyr, London, England"
51.50853;-0.12574;"St. Magnus the Martyr, London, England"
51.50853;-0.12574;"St. Magnus the Martyr, London, England"
51.50853;-0.12574;"St. Gregory, London, England"
51.50853;-0.12574;"St. Gregory, London, England"
51.50853;-0.12574;"St. Andrew Holbourn, London, England"
51.50853;-0.12574;"St. Andrew Holbourn, London, England"
51.50853;-0.12574;"St. Sepulchres, London, England"
51.50853;-0.12574;"St. Sepulchres, London, England"
51.50853;-0.12574;"St. George Buttolph Lane, London, England"
51.50853;-0.12574;"St. Andrew Holburn, London, England"
51.50853;-0.12574;"St. Andrew Holburn, London, England"
51.50853;-0.12574;"Pancrass, London, England"
51.50853;-0.12574;"Pancrass, London, England"
51.499834;-0.126706;"St. Margaret Westminster, London, England"
51.499834;-0.126706;"St. Margaret Westminster, London, England"
51.508733;-0.072803;"Smithfield, London, England"
51.508733;-0.072803;"Smithfield, London, England"
51.50853;-0.12574;"Allhallow's Barkin, London, England"
51.50853;-0.12574;"Allhallow's Barkin, London, England"
51.50853;-0.12574;"St. Martin Ludgate, London, England"
51.50853;-0.12574;"St. Sepulchres, London, England"
51.50853;-0.12574;"St. Sepulchres, London, England"
51.513109;-0.113857;"St. Clement Danes, London, England"
51.513109;-0.113857;"St. Clement Danes, London, England"
51.51382;-0.06583;"St. Mary Whitechapel, London, England"
51.51382;-0.06583;"St. Mary Whitechapel, London, England"
51.517402;-0.046219;"Stepney, London, England"
51.517402;-0.046219;"Stepney, London, England"
51.50853;-0.12574;"Allhallow's Lombardstreet, London, England"
51.51422;-0.11017;"St. Dunstan in the West, London, England"